[
	{
		"Street": "Southwell",
		"BuildingNumber": 201,
		"BuildingLetter": "E",
		"CorpusNumber": 11,
		"ApartmentNumber": 666,
		"Settlement": "Nova Kakhovka",
		"District": "Vorarlberg",
		"Region": "North Island",
		"PostalCode": "72506"
	},
	{
		"Street": "Mandal",
		"BuildingNumber": 62,
		"BuildingLetter": "A",
		"CorpusNumber": 9,
		"ApartmentNumber": 538,
		"Settlement": "Feilding",
		"District": "Extremadura",
		"Region": "Đồng Nai",
		"PostalCode": "30444"
	},
	{
		"Street": "Pazarcık",
		"BuildingNumber": 102,
		"BuildingLetter": null,
		"CorpusNumber": 14,
		"ApartmentNumber": 375,
		"Settlement": "Canberra",
		"District": "Manitoba",
		"Region": "Mazowieckie",
		"PostalCode": "95337"
	},
	{
		"Street": "Río Hurtado",
		"BuildingNumber": 108,
		"BuildingLetter": null,
		"CorpusNumber": 7,
		"ApartmentNumber": 200,
		"Settlement": "Thiên Tôn",
		"District": "Maharastra",
		"Region": "Alajuela",
		"PostalCode": "60262"
	},
	{
		"Street": "Graaff-Reinet",
		"BuildingNumber": 120,
		"BuildingLetter": "A",
		"CorpusNumber": 12,
		"ApartmentNumber": 886,
		"Settlement": "Oudtshoorn",
		"District": "Luxemburg",
		"Region": "Xīběi",
		"PostalCode": "40331"
	},
	{
		"Street": "Campos dos Goytacazes",
		"BuildingNumber": 204,
		"BuildingLetter": "A",
		"CorpusNumber": 15,
		"ApartmentNumber": 953,
		"Settlement": "Granada",
		"District": "Zhōngnán",
		"Region": "Gilgit Baltistan",
		"PostalCode": "10349"
	},
	{
		"Street": "Thisnes",
		"BuildingNumber": 79,
		"BuildingLetter": "B",
		"CorpusNumber": 8,
		"ApartmentNumber": 77,
		"Settlement": "Pöttsching",
		"District": "Lower Austria",
		"Region": "Friuli-Venezia Giulia",
		"PostalCode": "17615"
	},
	{
		"Street": "Nho Quan",
		"BuildingNumber": 131,
		"BuildingLetter": "B",
		"CorpusNumber": 6,
		"ApartmentNumber": 393,
		"Settlement": "Huaraz",
		"District": "Agder",
		"Region": "Castilla - La Mancha",
		"PostalCode": "54978"
	},
	{
		"Street": "Leuze",
		"BuildingNumber": 234,
		"BuildingLetter": "E",
		"CorpusNumber": 17,
		"ApartmentNumber": 481,
		"Settlement": "Lviv",
		"District": "Henegouwen",
		"Region": "Upper Austria",
		"PostalCode": "57451"
	},
	{
		"Street": "Sens",
		"BuildingNumber": 213,
		"BuildingLetter": "E",
		"CorpusNumber": 19,
		"ApartmentNumber": 682,
		"Settlement": "Chagai",
		"District": "Kahramanmaraş",
		"Region": "Borno",
		"PostalCode": "72271"
	},
	{
		"Street": "Armadale",
		"BuildingNumber": 27,
		"BuildingLetter": null,
		"CorpusNumber": 13,
		"ApartmentNumber": 793,
		"Settlement": "Elen",
		"District": "Tasmania",
		"Region": "Rutland",
		"PostalCode": "77241"
	},
	{
		"Street": "Melilla",
		"BuildingNumber": 37,
		"BuildingLetter": "E",
		"CorpusNumber": 8,
		"ApartmentNumber": 216,
		"Settlement": "Campbellton",
		"District": "West Papua",
		"Region": "Central Region",
		"PostalCode": "16835"
	},
	{
		"Street": "Zhejiang",
		"BuildingNumber": 212,
		"BuildingLetter": "E",
		"CorpusNumber": 8,
		"ApartmentNumber": 275,
		"Settlement": "Ocaña",
		"District": "Penza Oblast",
		"Region": "Cesar",
		"PostalCode": "14415"
	},
	{
		"Street": "Chuncheon",
		"BuildingNumber": 126,
		"BuildingLetter": "A",
		"CorpusNumber": 9,
		"ApartmentNumber": 798,
		"Settlement": "Iqaluit",
		"District": "Victoria",
		"Region": "Connacht",
		"PostalCode": "14564"
	},
	{
		"Street": "Notodden",
		"BuildingNumber": 191,
		"BuildingLetter": "B",
		"CorpusNumber": 3,
		"ApartmentNumber": 628,
		"Settlement": "Huaral",
		"District": "East Region",
		"Region": "KwaZulu-Natal",
		"PostalCode": "17341"
	},
	{
		"Street": "Sachs Harbour",
		"BuildingNumber": 217,
		"BuildingLetter": "A",
		"CorpusNumber": 15,
		"ApartmentNumber": 684,
		"Settlement": "Gilgit",
		"District": "Gyeonggi",
		"Region": "Tennessee",
		"PostalCode": "16652"
	},
	{
		"Street": "Siquirres",
		"BuildingNumber": 66,
		"BuildingLetter": null,
		"CorpusNumber": 15,
		"ApartmentNumber": 785,
		"Settlement": "Tam Kỳ",
		"District": "Lincolnshire",
		"Region": "Quebec",
		"PostalCode": "23178"
	},
	{
		"Street": "Acapulco",
		"BuildingNumber": 87,
		"BuildingLetter": "A",
		"CorpusNumber": 6,
		"ApartmentNumber": 835,
		"Settlement": "King William's Town",
		"District": "Huáběi",
		"Region": "Friesland",
		"PostalCode": "38737"
	},
	{
		"Street": "Arica",
		"BuildingNumber": 210,
		"BuildingLetter": "A",
		"CorpusNumber": 9,
		"ApartmentNumber": 13,
		"Settlement": "Aurillac",
		"District": "North Kalimantan",
		"Region": "Adana",
		"PostalCode": "74647"
	},
	{
		"Street": "Pontianak",
		"BuildingNumber": 215,
		"BuildingLetter": "B",
		"CorpusNumber": 12,
		"ApartmentNumber": 886,
		"Settlement": "Bayswater",
		"District": "Veneto",
		"Region": "South Island",
		"PostalCode": "17564"
	},
	{
		"Street": "Angoulême",
		"BuildingNumber": 240,
		"BuildingLetter": "B",
		"CorpusNumber": 3,
		"ApartmentNumber": 823,
		"Settlement": "Himamaylan",
		"District": "Connacht",
		"Region": "Abruzzo",
		"PostalCode": "37322"
	},
	{
		"Street": "Yurimaguas",
		"BuildingNumber": 103,
		"BuildingLetter": "A",
		"CorpusNumber": 3,
		"ApartmentNumber": 567,
		"Settlement": "Alice",
		"District": "Styria",
		"Region": "Munster",
		"PostalCode": "67018"
	},
	{
		"Street": "Juazeiro do Norte",
		"BuildingNumber": 192,
		"BuildingLetter": null,
		"CorpusNumber": 15,
		"ApartmentNumber": 468,
		"Settlement": "Vienna",
		"District": "Sindh",
		"Region": "Loreto",
		"PostalCode": "61736"
	},
	{
		"Street": "Beauvais",
		"BuildingNumber": 39,
		"BuildingLetter": null,
		"CorpusNumber": 9,
		"ApartmentNumber": 554,
		"Settlement": "Junagadh",
		"District": "Stirlingshire",
		"Region": "Connacht",
		"PostalCode": "67558"
	},
	{
		"Street": "Magadan",
		"BuildingNumber": 96,
		"BuildingLetter": "A",
		"CorpusNumber": 11,
		"ApartmentNumber": 968,
		"Settlement": "Kędzierzyn-Koźle",
		"District": "Quảng Trị",
		"Region": "South Gyeongsang",
		"PostalCode": "98458"
	},
	{
		"Street": "Kurgan",
		"BuildingNumber": 187,
		"BuildingLetter": "B",
		"CorpusNumber": 5,
		"ApartmentNumber": 320,
		"Settlement": "Buner",
		"District": "Gilgit Baltistan",
		"Region": "Angus",
		"PostalCode": "48702"
	},
	{
		"Street": "Awka",
		"BuildingNumber": 220,
		"BuildingLetter": null,
		"CorpusNumber": 10,
		"ApartmentNumber": 875,
		"Settlement": "Ensenada",
		"District": "Junín",
		"Region": "Uttarakhand",
		"PostalCode": "38651"
	},
	{
		"Street": "Albagiara",
		"BuildingNumber": 123,
		"BuildingLetter": "A",
		"CorpusNumber": 19,
		"ApartmentNumber": 9,
		"Settlement": "Kędzierzyn-Koźle",
		"District": "Zhytomyr oblast",
		"Region": "Cantabria",
		"PostalCode": "55138"
	},
	{
		"Street": "Ceuta",
		"BuildingNumber": 218,
		"BuildingLetter": null,
		"CorpusNumber": 4,
		"ApartmentNumber": 886,
		"Settlement": "Port Lincoln",
		"District": "Carinthia",
		"Region": "Waals-Brabant",
		"PostalCode": "24832"
	},
	{
		"Street": "Nowshera",
		"BuildingNumber": 189,
		"BuildingLetter": "E",
		"CorpusNumber": 10,
		"ApartmentNumber": 332,
		"Settlement": "Tuas",
		"District": "North Maluku",
		"Region": "Nghệ An",
		"PostalCode": "02614"
	},
	{
		"Street": "Cao Phong",
		"BuildingNumber": 179,
		"BuildingLetter": "A",
		"CorpusNumber": 3,
		"ApartmentNumber": 408,
		"Settlement": "Kaduna",
		"District": "Ontario",
		"Region": "Connacht",
		"PostalCode": "69626"
	},
	{
		"Street": "Dehradun",
		"BuildingNumber": 236,
		"BuildingLetter": "B",
		"CorpusNumber": 14,
		"ApartmentNumber": 222,
		"Settlement": "Lampeter",
		"District": "Jönköpings län",
		"Region": "Alsace",
		"PostalCode": "28122"
	},
	{
		"Street": "Sandefjord",
		"BuildingNumber": 79,
		"BuildingLetter": "B",
		"CorpusNumber": 13,
		"ApartmentNumber": 55,
		"Settlement": "Veenendaal",
		"District": "Västra Götalands län",
		"Region": "Xīběi",
		"PostalCode": "13117"
	},
	{
		"Street": "Volgograd",
		"BuildingNumber": 11,
		"BuildingLetter": "A",
		"CorpusNumber": 15,
		"ApartmentNumber": 123,
		"Settlement": "Ashburton",
		"District": "Sląskie",
		"Region": "Cartago",
		"PostalCode": "11680"
	},
	{
		"Street": "Gary",
		"BuildingNumber": 62,
		"BuildingLetter": "A",
		"CorpusNumber": 12,
		"ApartmentNumber": 242,
		"Settlement": "Seletar",
		"District": "South Jeolla",
		"Region": "North-East Region",
		"PostalCode": "07858"
	},
	{
		"Street": "Kacchi",
		"BuildingNumber": 224,
		"BuildingLetter": null,
		"CorpusNumber": 4,
		"ApartmentNumber": 124,
		"Settlement": "Sembawang",
		"District": "Poitou-Charentes",
		"Region": "Gävleborgs län",
		"PostalCode": "85227"
	},
	{
		"Street": "Lo Barnechea",
		"BuildingNumber": 232,
		"BuildingLetter": "A",
		"CorpusNumber": 4,
		"ApartmentNumber": 537,
		"Settlement": "Pamplona",
		"District": "Västra Götalands län",
		"Region": "Haryana",
		"PostalCode": "79129"
	},
	{
		"Street": "Førde",
		"BuildingNumber": 111,
		"BuildingLetter": "A",
		"CorpusNumber": 17,
		"ApartmentNumber": 989,
		"Settlement": "Tønsberg",
		"District": "Stockholms län",
		"Region": "North Island",
		"PostalCode": "55526"
	},
	{
		"Street": "Barranca",
		"BuildingNumber": 80,
		"BuildingLetter": "B",
		"CorpusNumber": 14,
		"ApartmentNumber": 150,
		"Settlement": "Delhi",
		"District": "Burgenland",
		"Region": "Valparaíso",
		"PostalCode": "44313"
	},
	{
		"Street": "Gangneung",
		"BuildingNumber": 76,
		"BuildingLetter": "B",
		"CorpusNumber": 17,
		"ApartmentNumber": 901,
		"Settlement": "Afşin",
		"District": "West Papua",
		"Region": "Podkarpackie",
		"PostalCode": "57727"
	},
	{
		"Street": "Puntarenas",
		"BuildingNumber": 221,
		"BuildingLetter": "E",
		"CorpusNumber": 4,
		"ApartmentNumber": 455,
		"Settlement": "Melilla",
		"District": "Brussels Hoofdstedelijk Gewest",
		"Region": "São Paulo",
		"PostalCode": "16897"
	},
	{
		"Street": "Ibagué",
		"BuildingNumber": 238,
		"BuildingLetter": "B",
		"CorpusNumber": 11,
		"ApartmentNumber": 194,
		"Settlement": "Naushahro Firoze",
		"District": "Kaduna",
		"Region": "Berlin",
		"PostalCode": "87286"
	},
	{
		"Street": "Alkmaar",
		"BuildingNumber": 244,
		"BuildingLetter": "E",
		"CorpusNumber": 5,
		"ApartmentNumber": 251,
		"Settlement": "Lodhran",
		"District": "Sachsen",
		"Region": "Hatay",
		"PostalCode": "88560"
	},
	{
		"Street": "Lamitan",
		"BuildingNumber": 23,
		"BuildingLetter": null,
		"CorpusNumber": 17,
		"ApartmentNumber": 981,
		"Settlement": "Soledad de Graciano Sánchez",
		"District": "Yên Bái",
		"Region": "Balochistan",
		"PostalCode": "15750"
	},
	{
		"Street": "İnegöl",
		"BuildingNumber": 48,
		"BuildingLetter": "A",
		"CorpusNumber": 18,
		"ApartmentNumber": 345,
		"Settlement": "Lampeter",
		"District": "Guanacaste",
		"Region": "Van",
		"PostalCode": "21541"
	},
	{
		"Street": "Vallepietra",
		"BuildingNumber": 79,
		"BuildingLetter": "A",
		"CorpusNumber": 14,
		"ApartmentNumber": 229,
		"Settlement": "Cauayan",
		"District": "Sicilia",
		"Region": "Gävleborgs län",
		"PostalCode": "98460"
	},
	{
		"Street": "Bida",
		"BuildingNumber": 143,
		"BuildingLetter": null,
		"CorpusNumber": 16,
		"ApartmentNumber": 270,
		"Settlement": "Kuruman",
		"District": "National Capital Region",
		"Region": "Gelderland",
		"PostalCode": "17309"
	},
	{
		"Street": "Ivano-Frankivsk",
		"BuildingNumber": 199,
		"BuildingLetter": "E",
		"CorpusNumber": 4,
		"ApartmentNumber": 716,
		"Settlement": "Constantia",
		"District": "Limpopo",
		"Region": "Zhōngnán",
		"PostalCode": "07638"
	},
	{
		"Street": "Owensboro",
		"BuildingNumber": 22,
		"BuildingLetter": null,
		"CorpusNumber": 11,
		"ApartmentNumber": 993,
		"Settlement": "Sullana",
		"District": "Hà Nội",
		"Region": "North West",
		"PostalCode": "87026"
	},
	{
		"Street": "Chandigarh",
		"BuildingNumber": 113,
		"BuildingLetter": "E",
		"CorpusNumber": 11,
		"ApartmentNumber": 65,
		"Settlement": "Pondicherry",
		"District": "Bahia",
		"Region": "Sokoto",
		"PostalCode": "14037"
	},
	{
		"Street": "Springfield",
		"BuildingNumber": 81,
		"BuildingLetter": null,
		"CorpusNumber": 6,
		"ApartmentNumber": 916,
		"Settlement": "Paya Lebar",
		"District": "Saskatchewan",
		"Region": "Stockholms län",
		"PostalCode": "32928"
	},
	{
		"Street": "Metz",
		"BuildingNumber": 249,
		"BuildingLetter": "E",
		"CorpusNumber": 5,
		"ApartmentNumber": 749,
		"Settlement": "Laurencekirk",
		"District": "Ilocos Region",
		"Region": "Nordland",
		"PostalCode": "45517"
	},
	{
		"Street": "Nizhny",
		"BuildingNumber": 56,
		"BuildingLetter": null,
		"CorpusNumber": 19,
		"ApartmentNumber": 511,
		"Settlement": "Cao Lãnh",
		"District": "Delaware",
		"Region": "Limón",
		"PostalCode": "02985"
	},
	{
		"Street": "Enschede",
		"BuildingNumber": 72,
		"BuildingLetter": "A",
		"CorpusNumber": 15,
		"ApartmentNumber": 223,
		"Settlement": "Simon's Town",
		"District": "Podlaskie",
		"Region": "Mizoram",
		"PostalCode": "65133"
	},
	{
		"Street": "Castletown",
		"BuildingNumber": 90,
		"BuildingLetter": "A",
		"CorpusNumber": 8,
		"ApartmentNumber": 315,
		"Settlement": "Sokoto",
		"District": "Đồng Nai",
		"Region": "Georgia",
		"PostalCode": "41823"
	},
	{
		"Street": "Hamburg",
		"BuildingNumber": 229,
		"BuildingLetter": "A",
		"CorpusNumber": 12,
		"ApartmentNumber": 947,
		"Settlement": "Hamilton",
		"District": "Ulster",
		"Region": "South Jeolla",
		"PostalCode": "30252"
	},
	{
		"Street": "Yeoju",
		"BuildingNumber": 73,
		"BuildingLetter": "E",
		"CorpusNumber": 15,
		"ApartmentNumber": 914,
		"Settlement": "Bauchi",
		"District": "Pays de la Loire",
		"Region": "Huádōng",
		"PostalCode": "54535"
	},
	{
		"Street": "Sangju",
		"BuildingNumber": 173,
		"BuildingLetter": "A",
		"CorpusNumber": 15,
		"ApartmentNumber": 880,
		"Settlement": "Jaén",
		"District": "Central Region",
		"Region": "Riau Islands",
		"PostalCode": "43487"
	},
	{
		"Street": "Steinkjer",
		"BuildingNumber": 231,
		"BuildingLetter": "A",
		"CorpusNumber": 16,
		"ApartmentNumber": 618,
		"Settlement": "Piła",
		"District": "Picardie",
		"Region": "North Region",
		"PostalCode": "25119"
	},
	{
		"Street": "Shillong",
		"BuildingNumber": 230,
		"BuildingLetter": "B",
		"CorpusNumber": 13,
		"ApartmentNumber": 805,
		"Settlement": "Chapecó",
		"District": "Dōngběi",
		"Region": "Podlaskie",
		"PostalCode": "18502"
	},
	{
		"Street": "Tire",
		"BuildingNumber": 119,
		"BuildingLetter": "E",
		"CorpusNumber": 11,
		"ApartmentNumber": 807,
		"Settlement": "Oslo",
		"District": "Nunavut",
		"Region": "Rogaland",
		"PostalCode": "96828"
	},
	{
		"Street": "Springdale",
		"BuildingNumber": 19,
		"BuildingLetter": null,
		"CorpusNumber": 11,
		"ApartmentNumber": 233,
		"Settlement": "Henderson",
		"District": "Mazowieckie",
		"Region": "Xīnán",
		"PostalCode": "67517"
	},
	{
		"Street": "Mamuju",
		"BuildingNumber": 190,
		"BuildingLetter": "E",
		"CorpusNumber": 12,
		"ApartmentNumber": 693,
		"Settlement": "Parauapebas",
		"District": "Trà Vinh",
		"Region": "Bangka Belitung Islands",
		"PostalCode": "32536"
	},
	{
		"Street": "Charleville-Mézières",
		"BuildingNumber": 219,
		"BuildingLetter": "E",
		"CorpusNumber": 19,
		"ApartmentNumber": 941,
		"Settlement": "Mohmand Agency",
		"District": "Alberta",
		"Region": "Nordland",
		"PostalCode": "48045"
	},
	{
		"Street": "Launceston",
		"BuildingNumber": 192,
		"BuildingLetter": "E",
		"CorpusNumber": 11,
		"ApartmentNumber": 751,
		"Settlement": "Aurillac",
		"District": "Xīběi",
		"Region": "Flevoland",
		"PostalCode": "22944"
	},
	{
		"Street": "Dordrecht",
		"BuildingNumber": 52,
		"BuildingLetter": null,
		"CorpusNumber": 14,
		"ApartmentNumber": 314,
		"Settlement": "Moss",
		"District": "Hawaii",
		"Region": "Kogi",
		"PostalCode": "37111"
	},
	{
		"Street": "Wrocław",
		"BuildingNumber": 207,
		"BuildingLetter": null,
		"CorpusNumber": 10,
		"ApartmentNumber": 995,
		"Settlement": "Minna",
		"District": "Kaluga Oblast",
		"Region": "Västra Götalands län",
		"PostalCode": "25515"
	},
	{
		"Street": "Toledo",
		"BuildingNumber": 53,
		"BuildingLetter": "A",
		"CorpusNumber": 10,
		"ApartmentNumber": 995,
		"Settlement": "Burnie",
		"District": "Sachsen",
		"Region": "New South Wales",
		"PostalCode": "54278"
	},
	{
		"Street": "Sakhalin",
		"BuildingNumber": 54,
		"BuildingLetter": "B",
		"CorpusNumber": 10,
		"ApartmentNumber": 556,
		"Settlement": "Thái Nguyên",
		"District": "Stockholms län",
		"Region": "Umbria",
		"PostalCode": "57700"
	},
	{
		"Street": "Secunda",
		"BuildingNumber": 36,
		"BuildingLetter": "A",
		"CorpusNumber": 6,
		"ApartmentNumber": 262,
		"Settlement": "Carmen",
		"District": "Møre og Romsdal",
		"Region": "Huádōng",
		"PostalCode": "91756"
	},
	{
		"Street": "Chilpancingo",
		"BuildingNumber": 211,
		"BuildingLetter": "A",
		"CorpusNumber": 16,
		"ApartmentNumber": 68,
		"Settlement": "Kallang",
		"District": "Haryana",
		"Region": "Volyn oblast",
		"PostalCode": "83965"
	},
	{
		"Street": "Savannah",
		"BuildingNumber": 196,
		"BuildingLetter": "B",
		"CorpusNumber": 5,
		"ApartmentNumber": 25,
		"Settlement": "Wałbrzych",
		"District": "Puntarenas",
		"Region": "Cartago",
		"PostalCode": "81633"
	},
	{
		"Street": "River Valley",
		"BuildingNumber": 71,
		"BuildingLetter": "A",
		"CorpusNumber": 19,
		"ApartmentNumber": 376,
		"Settlement": "Neelum Valley",
		"District": "West Lothian",
		"Region": "Galicia",
		"PostalCode": "08955"
	},
	{
		"Street": "Rio Grande",
		"BuildingNumber": 4,
		"BuildingLetter": "A",
		"CorpusNumber": 16,
		"ApartmentNumber": 141,
		"Settlement": "Spittal an der Drau",
		"District": "Dadra and Nagar Haveli",
		"Region": "Balochistan",
		"PostalCode": "41704"
	},
	{
		"Street": "Riesa",
		"BuildingNumber": 156,
		"BuildingLetter": "E",
		"CorpusNumber": 2,
		"ApartmentNumber": 77,
		"Settlement": "Panjim",
		"District": "Ontario",
		"Region": "Hà Nam",
		"PostalCode": "18564"
	},
	{
		"Street": "Quesada",
		"BuildingNumber": 94,
		"BuildingLetter": "E",
		"CorpusNumber": 14,
		"ApartmentNumber": 570,
		"Settlement": "Berdychiv",
		"District": "Western Cape",
		"Region": "Jönköpings län",
		"PostalCode": "78389"
	},
	{
		"Street": "Gongju",
		"BuildingNumber": 211,
		"BuildingLetter": null,
		"CorpusNumber": 12,
		"ApartmentNumber": 360,
		"Settlement": "Kington",
		"District": "Leinster",
		"Region": "Lampung",
		"PostalCode": "37486"
	},
	{
		"Street": "Verzegnis",
		"BuildingNumber": 197,
		"BuildingLetter": "E",
		"CorpusNumber": 11,
		"ApartmentNumber": 577,
		"Settlement": "Gimhae",
		"District": "Bali",
		"Region": "Sląskie",
		"PostalCode": "57741"
	},
	{
		"Street": "Tando Allahyar",
		"BuildingNumber": 9,
		"BuildingLetter": null,
		"CorpusNumber": 3,
		"ApartmentNumber": 926,
		"Settlement": "Neunkirchen",
		"District": "Viken",
		"Region": "Drenthe",
		"PostalCode": "82842"
	},
	{
		"Street": "Tolyatti",
		"BuildingNumber": 127,
		"BuildingLetter": "B",
		"CorpusNumber": 19,
		"ApartmentNumber": 338,
		"Settlement": "Punggol",
		"District": "North Jeolla",
		"Region": "Delhi",
		"PostalCode": "65652"
	},
	{
		"Street": "Arnhem",
		"BuildingNumber": 208,
		"BuildingLetter": null,
		"CorpusNumber": 9,
		"ApartmentNumber": 446,
		"Settlement": "Charlottetown",
		"District": "Đồng Nai",
		"Region": "Xīběi",
		"PostalCode": "19365"
	},
	{
		"Street": "Toruń",
		"BuildingNumber": 43,
		"BuildingLetter": "A",
		"CorpusNumber": 10,
		"ApartmentNumber": 198,
		"Settlement": "Quilleco",
		"District": "Mazowieckie",
		"Region": "Sachsen",
		"PostalCode": "79289"
	},
	{
		"Street": "Melitopol",
		"BuildingNumber": 27,
		"BuildingLetter": "E",
		"CorpusNumber": 13,
		"ApartmentNumber": 879,
		"Settlement": "Boulogne-Billancourt",
		"District": "Chocó",
		"Region": "Cartago",
		"PostalCode": "53924"
	},
	{
		"Street": "Divinópolis",
		"BuildingNumber": 61,
		"BuildingLetter": "B",
		"CorpusNumber": 2,
		"ApartmentNumber": 119,
		"Settlement": "Ottawa-Carleton",
		"District": "Victoria",
		"Region": "Western Cape",
		"PostalCode": "68585"
	},
	{
		"Street": "Tongrinne",
		"BuildingNumber": 22,
		"BuildingLetter": "B",
		"CorpusNumber": 10,
		"ApartmentNumber": 830,
		"Settlement": "Arequipa",
		"District": "Bihar",
		"Region": "Victoria",
		"PostalCode": "08619"
	},
	{
		"Street": "Viranşehir",
		"BuildingNumber": 223,
		"BuildingLetter": "B",
		"CorpusNumber": 5,
		"ApartmentNumber": 707,
		"Settlement": "Shaki",
		"District": "South Australia",
		"Region": "Friuli-Venezia Giulia",
		"PostalCode": "84426"
	},
	{
		"Street": "Anseong",
		"BuildingNumber": 249,
		"BuildingLetter": "E",
		"CorpusNumber": 8,
		"ApartmentNumber": 680,
		"Settlement": "Kristiansund",
		"District": "Hamburg",
		"Region": "South Island",
		"PostalCode": "33698"
	},
	{
		"Street": "Jecheon",
		"BuildingNumber": 77,
		"BuildingLetter": "B",
		"CorpusNumber": 12,
		"ApartmentNumber": 455,
		"Settlement": "Cork",
		"District": "Hamburg",
		"Region": "Gauteng",
		"PostalCode": "15154"
	},
	{
		"Street": "New Plymouth",
		"BuildingNumber": 36,
		"BuildingLetter": "B",
		"CorpusNumber": 7,
		"ApartmentNumber": 818,
		"Settlement": "Guarapuava",
		"District": "Møre og Romsdal",
		"Region": "Pernambuco",
		"PostalCode": "88682"
	},
	{
		"Street": "Campofelice di Fitalia",
		"BuildingNumber": 140,
		"BuildingLetter": "E",
		"CorpusNumber": 10,
		"ApartmentNumber": 842,
		"Settlement": "Cardigan",
		"District": "La Libertad",
		"Region": "Maluku",
		"PostalCode": "02588"
	},
	{
		"Street": "Pondicherry",
		"BuildingNumber": 200,
		"BuildingLetter": "E",
		"CorpusNumber": 14,
		"ApartmentNumber": 295,
		"Settlement": "Akhtubinsk",
		"District": "Alaska",
		"Region": "North Jeolla",
		"PostalCode": "63245"
	},
	{
		"Street": "Belfast",
		"BuildingNumber": 31,
		"BuildingLetter": null,
		"CorpusNumber": 9,
		"ApartmentNumber": 941,
		"Settlement": "Tsiigehtchic",
		"District": "Lorraine",
		"Region": "Boyacá",
		"PostalCode": "64163"
	},
	{
		"Street": "Dieppe",
		"BuildingNumber": 238,
		"BuildingLetter": "E",
		"CorpusNumber": 10,
		"ApartmentNumber": 49,
		"Settlement": "Zamora",
		"District": "Ulster",
		"Region": "Central Region",
		"PostalCode": "14819"
	},
	{
		"Street": "Zona Bananera",
		"BuildingNumber": 120,
		"BuildingLetter": "B",
		"CorpusNumber": 3,
		"ApartmentNumber": 750,
		"Settlement": "Bauchi",
		"District": "Paraná",
		"Region": "North Gyeongsang",
		"PostalCode": "69448"
	},
	{
		"Street": "Uribia",
		"BuildingNumber": 47,
		"BuildingLetter": "A",
		"CorpusNumber": 9,
		"ApartmentNumber": 28,
		"Settlement": "Celle",
		"District": "Chocó",
		"Region": "Wisconsin",
		"PostalCode": "98439"
	},
	{
		"Street": "Yorkton",
		"BuildingNumber": 28,
		"BuildingLetter": null,
		"CorpusNumber": 16,
		"ApartmentNumber": 579,
		"Settlement": "Fumal",
		"District": "Junín",
		"Region": "Cordillera Administrative Region",
		"PostalCode": "71138"
	},
	{
		"Street": "Skövde",
		"BuildingNumber": 176,
		"BuildingLetter": "A",
		"CorpusNumber": 17,
		"ApartmentNumber": 851,
		"Settlement": "Thalassery",
		"District": "Delta",
		"Region": "Atacama",
		"PostalCode": "67756"
	},
	{
		"Street": "Wonju",
		"BuildingNumber": 42,
		"BuildingLetter": "B",
		"CorpusNumber": 10,
		"ApartmentNumber": 733,
		"Settlement": "Uppingham. Cottesmore",
		"District": "North-East Region",
		"Region": "Munster",
		"PostalCode": "78384"
	},
	{
		"Street": "Koronadal",
		"BuildingNumber": 113,
		"BuildingLetter": "B",
		"CorpusNumber": 11,
		"ApartmentNumber": 628,
		"Settlement": "Palangka Raya",
		"District": "New Brunswick",
		"Region": "Nunavut",
		"PostalCode": "23749"
	},
	{
		"Street": "Pinetown",
		"BuildingNumber": 41,
		"BuildingLetter": "E",
		"CorpusNumber": 4,
		"ApartmentNumber": 174,
		"Settlement": "Ulyanovsk",
		"District": "Paraíba",
		"Region": "Bắc Ninh",
		"PostalCode": "13550"
	},
	{
		"Street": "Lạng Sơn",
		"BuildingNumber": 156,
		"BuildingLetter": "B",
		"CorpusNumber": 6,
		"ApartmentNumber": 129,
		"Settlement": "Oaxaca",
		"District": "North Jeolla",
		"Region": "Samara Oblast",
		"PostalCode": "27474"
	},
	{
		"Street": "Sargodha",
		"BuildingNumber": 238,
		"BuildingLetter": "A",
		"CorpusNumber": 11,
		"ApartmentNumber": 138,
		"Settlement": "Pekanbaru",
		"District": "Lubuskie",
		"Region": "Norte de Santander",
		"PostalCode": "46814"
	},
	{
		"Street": "Graaff-Reinet",
		"BuildingNumber": 86,
		"BuildingLetter": "E",
		"CorpusNumber": 11,
		"ApartmentNumber": 841,
		"Settlement": "Gävle",
		"District": "Ohio",
		"Region": "Mersin",
		"PostalCode": "03553"
	},
	{
		"Street": "Pangkalpinang",
		"BuildingNumber": 41,
		"BuildingLetter": "E",
		"CorpusNumber": 4,
		"ApartmentNumber": 198,
		"Settlement": "Cabadbaran",
		"District": "Balochistan",
		"Region": "Västra Götalands län",
		"PostalCode": "09623"
	},
	{
		"Street": "Granada",
		"BuildingNumber": 80,
		"BuildingLetter": null,
		"CorpusNumber": 12,
		"ApartmentNumber": 831,
		"Settlement": "Galway",
		"District": "Cauca",
		"Region": "South Australia",
		"PostalCode": "68886"
	},
	{
		"Street": "Lago Ranco",
		"BuildingNumber": 107,
		"BuildingLetter": "A",
		"CorpusNumber": 7,
		"ApartmentNumber": 757,
		"Settlement": "Upplands Väsby",
		"District": "Berlin",
		"Region": "Metropolitana de Santiago",
		"PostalCode": "46532"
	},
	{
		"Street": "Grahamstown",
		"BuildingNumber": 141,
		"BuildingLetter": "E",
		"CorpusNumber": 3,
		"ApartmentNumber": 973,
		"Settlement": "Sungei Kadut",
		"District": "Tambov Oblast",
		"Region": "Caraga",
		"PostalCode": "81717"
	},
	{
		"Street": "Tyumen",
		"BuildingNumber": 240,
		"BuildingLetter": "A",
		"CorpusNumber": 6,
		"ApartmentNumber": 594,
		"Settlement": "Chuncheon",
		"District": "Aragón",
		"Region": "North Jeolla",
		"PostalCode": "62872"
	},
	{
		"Street": "Yekaterinburg",
		"BuildingNumber": 10,
		"BuildingLetter": null,
		"CorpusNumber": 12,
		"ApartmentNumber": 978,
		"Settlement": "Almere",
		"District": "Goiás",
		"Region": "Sakhalin Oblast",
		"PostalCode": "01418"
	},
	{
		"Street": "Mont",
		"BuildingNumber": 222,
		"BuildingLetter": "A",
		"CorpusNumber": 18,
		"ApartmentNumber": 473,
		"Settlement": "Paraíso",
		"District": "Caquetá",
		"Region": "Wielkopolskie",
		"PostalCode": "11363"
	},
	{
		"Street": "Gunsan",
		"BuildingNumber": 2,
		"BuildingLetter": "E",
		"CorpusNumber": 6,
		"ApartmentNumber": 746,
		"Settlement": "Pleiku",
		"District": "Huádōng",
		"Region": "Pará",
		"PostalCode": "72544"
	},
	{
		"Street": "Queenstown",
		"BuildingNumber": 220,
		"BuildingLetter": null,
		"CorpusNumber": 5,
		"ApartmentNumber": 201,
		"Settlement": "Mérida",
		"District": "Maranhão",
		"Region": "Zaporizhzhia oblast",
		"PostalCode": "22724"
	},
	{
		"Street": "Arequipa",
		"BuildingNumber": 123,
		"BuildingLetter": "A",
		"CorpusNumber": 16,
		"ApartmentNumber": 416,
		"Settlement": "Brest",
		"District": "Gujarat",
		"Region": "Saarland",
		"PostalCode": "41856"
	},
	{
		"Street": "Irkutsk",
		"BuildingNumber": 170,
		"BuildingLetter": null,
		"CorpusNumber": 7,
		"ApartmentNumber": 907,
		"Settlement": "Khmelnytskyi",
		"District": "Kaduna",
		"Region": "Cordillera Administrative Region",
		"PostalCode": "21654"
	},
	{
		"Street": "Tramutola",
		"BuildingNumber": 100,
		"BuildingLetter": "A",
		"CorpusNumber": 4,
		"ApartmentNumber": 204,
		"Settlement": "Tiverton",
		"District": "West Region",
		"Region": "West Region",
		"PostalCode": "69867"
	},
	{
		"Street": "Bremerhaven",
		"BuildingNumber": 148,
		"BuildingLetter": null,
		"CorpusNumber": 9,
		"ApartmentNumber": 351,
		"Settlement": "Cork",
		"District": "Karnataka",
		"Region": "FATA",
		"PostalCode": "17834"
	},
	{
		"Street": "Värnamo",
		"BuildingNumber": 118,
		"BuildingLetter": "A",
		"CorpusNumber": 12,
		"ApartmentNumber": 9,
		"Settlement": "Henan",
		"District": "Calabarzon",
		"Region": "Nova Scotia",
		"PostalCode": "70866"
	},
	{
		"Street": "Blenheim",
		"BuildingNumber": 217,
		"BuildingLetter": "B",
		"CorpusNumber": 3,
		"ApartmentNumber": 286,
		"Settlement": "Chapecó",
		"District": "Bayern",
		"Region": "Mersin",
		"PostalCode": "34318"
	},
	{
		"Street": "San Cristóbal de la Laguna",
		"BuildingNumber": 137,
		"BuildingLetter": null,
		"CorpusNumber": 18,
		"ApartmentNumber": 119,
		"Settlement": "Cumaribo",
		"District": "FATA",
		"Region": "Hamburg",
		"PostalCode": "91643"
	},
	{
		"Street": "Lambayeque",
		"BuildingNumber": 43,
		"BuildingLetter": null,
		"CorpusNumber": 14,
		"ApartmentNumber": 592,
		"Settlement": "Fredericton",
		"District": "West Region",
		"Region": "Rostov Oblast",
		"PostalCode": "09717"
	},
	{
		"Street": "Paya Lebar",
		"BuildingNumber": 157,
		"BuildingLetter": "E",
		"CorpusNumber": 3,
		"ApartmentNumber": 222,
		"Settlement": "Bello",
		"District": "Franche-Comté",
		"Region": "West Bengal",
		"PostalCode": "18192"
	},
	{
		"Street": "Albury",
		"BuildingNumber": 149,
		"BuildingLetter": "B",
		"CorpusNumber": 9,
		"ApartmentNumber": 578,
		"Settlement": "Mackay",
		"District": "Yucatán",
		"Region": "Bắc Kạn",
		"PostalCode": "76674"
	},
	{
		"Street": "Biała Podlaska",
		"BuildingNumber": 219,
		"BuildingLetter": null,
		"CorpusNumber": 4,
		"ApartmentNumber": 35,
		"Settlement": "Chuncheon",
		"District": "Chernivtsi oblast",
		"Region": "Tamaulipas",
		"PostalCode": "50443"
	},
	{
		"Street": "Bochum",
		"BuildingNumber": 31,
		"BuildingLetter": null,
		"CorpusNumber": 19,
		"ApartmentNumber": 653,
		"Settlement": "Juliaca",
		"District": "North-East Region",
		"Region": "Lower Austria",
		"PostalCode": "47425"
	},
	{
		"Street": "Pontianak",
		"BuildingNumber": 21,
		"BuildingLetter": "B",
		"CorpusNumber": 4,
		"ApartmentNumber": 106,
		"Settlement": "Vaux-sur-Sure",
		"District": "Rostov Oblast",
		"Region": "Bretagne",
		"PostalCode": "43486"
	},
	{
		"Street": "Nazilli",
		"BuildingNumber": 222,
		"BuildingLetter": "B",
		"CorpusNumber": 6,
		"ApartmentNumber": 606,
		"Settlement": "Tomsk",
		"District": "Los Lagos",
		"Region": "Cajamarca",
		"PostalCode": "56474"
	},
	{
		"Street": "Maranguape",
		"BuildingNumber": 146,
		"BuildingLetter": null,
		"CorpusNumber": 19,
		"ApartmentNumber": 189,
		"Settlement": "Oleksandriia",
		"District": "Irkutsk Oblast",
		"Region": "Cajamarca",
		"PostalCode": "46802"
	},
	{
		"Street": "Darıca",
		"BuildingNumber": 114,
		"BuildingLetter": "A",
		"CorpusNumber": 7,
		"ApartmentNumber": 292,
		"Settlement": "Gorzów Wielkopolski",
		"District": "Tamil Nadu",
		"Region": "Iowa",
		"PostalCode": "06474"
	},
	{
		"Street": "Raipur",
		"BuildingNumber": 5,
		"BuildingLetter": "A",
		"CorpusNumber": 1,
		"ApartmentNumber": 856,
		"Settlement": "Huissen",
		"District": "Sucre",
		"Region": "Kogi",
		"PostalCode": "87838"
	},
	{
		"Street": "Iguala",
		"BuildingNumber": 31,
		"BuildingLetter": null,
		"CorpusNumber": 6,
		"ApartmentNumber": 769,
		"Settlement": "Pondicherry",
		"District": "Manipur",
		"Region": "Andalucía",
		"PostalCode": "98555"
	},
	{
		"Street": "Milnathort",
		"BuildingNumber": 200,
		"BuildingLetter": "B",
		"CorpusNumber": 12,
		"ApartmentNumber": 683,
		"Settlement": "Dapitan",
		"District": "Waals-Brabant",
		"Region": "Zaporizhzhia oblast",
		"PostalCode": "64081"
	},
	{
		"Street": "Dubna",
		"BuildingNumber": 29,
		"BuildingLetter": null,
		"CorpusNumber": 7,
		"ApartmentNumber": 645,
		"Settlement": "Dibrugarh",
		"District": "Konya",
		"Region": "Cardiganshire",
		"PostalCode": "48422"
	},
	{
		"Street": "Antártica",
		"BuildingNumber": 69,
		"BuildingLetter": "E",
		"CorpusNumber": 15,
		"ApartmentNumber": 859,
		"Settlement": "Gävle",
		"District": "South Jeolla",
		"Region": "Chernihiv oblast",
		"PostalCode": "04886"
	},
	{
		"Street": "Manokwari",
		"BuildingNumber": 1,
		"BuildingLetter": "A",
		"CorpusNumber": 6,
		"ApartmentNumber": 625,
		"Settlement": "Piotrków Trybunalski",
		"District": "North Region",
		"Region": "South Jeolla",
		"PostalCode": "62288"
	},
	{
		"Street": "Acuña",
		"BuildingNumber": 186,
		"BuildingLetter": null,
		"CorpusNumber": 18,
		"ApartmentNumber": 775,
		"Settlement": "Morhet",
		"District": "Nordland",
		"Region": "North Island",
		"PostalCode": "22526"
	},
	{
		"Street": "Castiglione di Garfagnana",
		"BuildingNumber": 249,
		"BuildingLetter": null,
		"CorpusNumber": 13,
		"ApartmentNumber": 825,
		"Settlement": "Denver",
		"District": "İzmir",
		"Region": "North Island",
		"PostalCode": "79795"
	},
	{
		"Street": "Toulon",
		"BuildingNumber": 27,
		"BuildingLetter": null,
		"CorpusNumber": 10,
		"ApartmentNumber": 247,
		"Settlement": "Pleiku",
		"District": "Gilgit Baltistan",
		"Region": "Magdalena",
		"PostalCode": "36239"
	},
	{
		"Street": "Malkajgiri",
		"BuildingNumber": 166,
		"BuildingLetter": "A",
		"CorpusNumber": 5,
		"ApartmentNumber": 612,
		"Settlement": "Lerum",
		"District": "Imo",
		"Region": "Caquetá",
		"PostalCode": "28018"
	},
	{
		"Street": "Cartagena",
		"BuildingNumber": 110,
		"BuildingLetter": null,
		"CorpusNumber": 12,
		"ApartmentNumber": 529,
		"Settlement": "Nueva Imperial",
		"District": "Saarland",
		"Region": "Xīnán",
		"PostalCode": "98288"
	},
	{
		"Street": "Huancayo",
		"BuildingNumber": 207,
		"BuildingLetter": "B",
		"CorpusNumber": 2,
		"ApartmentNumber": 318,
		"Settlement": "Mirny",
		"District": "Hertfordshire",
		"Region": "Arunachal Pradesh",
		"PostalCode": "13444"
	},
	{
		"Street": "Tehuacán",
		"BuildingNumber": 93,
		"BuildingLetter": "B",
		"CorpusNumber": 2,
		"ApartmentNumber": 873,
		"Settlement": "Harbour Grace",
		"District": "Michoacán",
		"Region": "Rivers",
		"PostalCode": "31793"
	},
	{
		"Street": "Carmen de Bolivar",
		"BuildingNumber": 199,
		"BuildingLetter": null,
		"CorpusNumber": 7,
		"ApartmentNumber": 378,
		"Settlement": "Litueche",
		"District": "Opolskie",
		"Region": "Kaliningrad Oblast",
		"PostalCode": "85648"
	},
	{
		"Street": "Erciş",
		"BuildingNumber": 53,
		"BuildingLetter": "A",
		"CorpusNumber": 9,
		"ApartmentNumber": 344,
		"Settlement": "Riosucio",
		"District": "Novosibirsk Oblast",
		"Region": "Styria",
		"PostalCode": "34228"
	},
	{
		"Street": "Kraków",
		"BuildingNumber": 206,
		"BuildingLetter": "A",
		"CorpusNumber": 3,
		"ApartmentNumber": 497,
		"Settlement": "Dublin",
		"District": "Östergötlands län",
		"Region": "Limousin",
		"PostalCode": "27546"
	},
	{
		"Street": "Vienna",
		"BuildingNumber": 88,
		"BuildingLetter": "E",
		"CorpusNumber": 2,
		"ApartmentNumber": 988,
		"Settlement": "Apeldoorn",
		"District": "Jeju",
		"Region": "Antalya",
		"PostalCode": "35678"
	},
	{
		"Street": "Brussel X-Luchthaven Remailing",
		"BuildingNumber": 80,
		"BuildingLetter": null,
		"CorpusNumber": 15,
		"ApartmentNumber": 291,
		"Settlement": "Rum",
		"District": "Shropshire",
		"Region": "Bayern",
		"PostalCode": "93163"
	},
	{
		"Street": "Hospet",
		"BuildingNumber": 28,
		"BuildingLetter": null,
		"CorpusNumber": 3,
		"ApartmentNumber": 449,
		"Settlement": "Szczecin",
		"District": "Cherkasy oblast",
		"Region": "West Kalimantan",
		"PostalCode": "86822"
	},
	{
		"Street": "Hạ Long",
		"BuildingNumber": 53,
		"BuildingLetter": "A",
		"CorpusNumber": 14,
		"ApartmentNumber": 975,
		"Settlement": "Konya",
		"District": "Luxemburg",
		"Region": "Dalarnas län",
		"PostalCode": "33701"
	},
	{
		"Street": "Albi",
		"BuildingNumber": 124,
		"BuildingLetter": "E",
		"CorpusNumber": 10,
		"ApartmentNumber": 584,
		"Settlement": "Sint-Pauwels",
		"District": "Murcia",
		"Region": "Quảng Bình",
		"PostalCode": "73562"
	},
	{
		"Street": "Belfast",
		"BuildingNumber": 39,
		"BuildingLetter": null,
		"CorpusNumber": 14,
		"ApartmentNumber": 961,
		"Settlement": "Marina South",
		"District": "Gävleborgs län",
		"Region": "East Region",
		"PostalCode": "84637"
	},
	{
		"Street": "Münster",
		"BuildingNumber": 16,
		"BuildingLetter": "B",
		"CorpusNumber": 12,
		"ApartmentNumber": 166,
		"Settlement": "Dangjin",
		"District": "Southwestern Tagalog Region",
		"Region": "Balochistan",
		"PostalCode": "66468"
	},
	{
		"Street": "Shanghai",
		"BuildingNumber": 121,
		"BuildingLetter": null,
		"CorpusNumber": 3,
		"ApartmentNumber": 565,
		"Settlement": "Wrocław",
		"District": "Campania",
		"Region": "Guanacaste",
		"PostalCode": "26365"
	},
	{
		"Street": "Rạch Giá",
		"BuildingNumber": 115,
		"BuildingLetter": "E",
		"CorpusNumber": 19,
		"ApartmentNumber": 7,
		"Settlement": "Gondiya",
		"District": "Junín",
		"Region": "Swiętokrzyskie",
		"PostalCode": "43718"
	},
	{
		"Street": "Haverhill",
		"BuildingNumber": 51,
		"BuildingLetter": null,
		"CorpusNumber": 14,
		"ApartmentNumber": 811,
		"Settlement": "Lambayeque",
		"District": "Davao Region",
		"Region": "New Brunswick",
		"PostalCode": "50256"
	},
	{
		"Street": "Kansas City",
		"BuildingNumber": 83,
		"BuildingLetter": "B",
		"CorpusNumber": 9,
		"ApartmentNumber": 257,
		"Settlement": "Przemyśl",
		"District": "Emilia-Romagna",
		"Region": "South Island",
		"PostalCode": "81626"
	},
	{
		"Street": "Oamaru",
		"BuildingNumber": 85,
		"BuildingLetter": "A",
		"CorpusNumber": 10,
		"ApartmentNumber": 666,
		"Settlement": "Samara",
		"District": "North-East Region",
		"Region": "Molise",
		"PostalCode": "68845"
	},
	{
		"Street": "Freiberg",
		"BuildingNumber": 78,
		"BuildingLetter": "B",
		"CorpusNumber": 19,
		"ApartmentNumber": 613,
		"Settlement": "Feilding",
		"District": "Osun",
		"Region": "Karnataka",
		"PostalCode": "67125"
	},
	{
		"Street": "Fraser Lake",
		"BuildingNumber": 65,
		"BuildingLetter": null,
		"CorpusNumber": 2,
		"ApartmentNumber": 752,
		"Settlement": "Tambov",
		"District": "Dolnośląskie",
		"Region": "Xīběi",
		"PostalCode": "40862"
	},
	{
		"Street": "Colombes",
		"BuildingNumber": 249,
		"BuildingLetter": null,
		"CorpusNumber": 3,
		"ApartmentNumber": 750,
		"Settlement": "Lauterach",
		"District": "Agder",
		"Region": "Principado de Asturias",
		"PostalCode": "69295"
	},
	{
		"Street": "Abeokuta",
		"BuildingNumber": 239,
		"BuildingLetter": "E",
		"CorpusNumber": 19,
		"ApartmentNumber": 760,
		"Settlement": "Da Lat",
		"District": "Bauchi",
		"Region": "Poitou-Charentes",
		"PostalCode": "00132"
	},
	{
		"Street": "Siedlce",
		"BuildingNumber": 121,
		"BuildingLetter": "E",
		"CorpusNumber": 6,
		"ApartmentNumber": 372,
		"Settlement": "Kidapawan",
		"District": "Tasmania",
		"Region": "Australian Capital Territory",
		"PostalCode": "67323"
	},
	{
		"Street": "Dera Ismail Khan",
		"BuildingNumber": 108,
		"BuildingLetter": "A",
		"CorpusNumber": 4,
		"ApartmentNumber": 937,
		"Settlement": "La Plata",
		"District": "Arequipa",
		"Region": "South Sumatra",
		"PostalCode": "43200"
	},
	{
		"Street": "Paz de Ariporo",
		"BuildingNumber": 114,
		"BuildingLetter": "B",
		"CorpusNumber": 9,
		"ApartmentNumber": 650,
		"Settlement": "Isabela City",
		"District": "Northern Cape",
		"Region": "Vlaams-Brabant",
		"PostalCode": "14492"
	},
	{
		"Street": "Stonewall",
		"BuildingNumber": 114,
		"BuildingLetter": null,
		"CorpusNumber": 3,
		"ApartmentNumber": 708,
		"Settlement": "Salzburg",
		"District": "Kirovohrad oblast",
		"Region": "Leinster",
		"PostalCode": "25374"
	},
	{
		"Street": "Lincoln",
		"BuildingNumber": 233,
		"BuildingLetter": "B",
		"CorpusNumber": 19,
		"ApartmentNumber": 569,
		"Settlement": "Cusco",
		"District": "Stockholms län",
		"Region": "Brandenburg",
		"PostalCode": "89113"
	},
	{
		"Street": "Queenstown",
		"BuildingNumber": 204,
		"BuildingLetter": null,
		"CorpusNumber": 14,
		"ApartmentNumber": 496,
		"Settlement": "Rochor",
		"District": "Gelderland",
		"Region": "Northern Territory",
		"PostalCode": "75411"
	},
	{
		"Street": "Banjarbaru",
		"BuildingNumber": 98,
		"BuildingLetter": null,
		"CorpusNumber": 8,
		"ApartmentNumber": 644,
		"Settlement": "Jönköping",
		"District": "Alajuela",
		"Region": "Clackmannanshire",
		"PostalCode": "43808"
	},
	{
		"Street": "Hải Phòng",
		"BuildingNumber": 84,
		"BuildingLetter": "E",
		"CorpusNumber": 2,
		"ApartmentNumber": 239,
		"Settlement": "Arequipa",
		"District": "Santander",
		"Region": "Borno",
		"PostalCode": "40762"
	},
	{
		"Street": "Saint-Dizier",
		"BuildingNumber": 79,
		"BuildingLetter": "A",
		"CorpusNumber": 7,
		"ApartmentNumber": 914,
		"Settlement": "Nogales",
		"District": "Gyeonggi",
		"Region": "Riau Islands",
		"PostalCode": "28134"
	},
	{
		"Street": "Adelaide",
		"BuildingNumber": 159,
		"BuildingLetter": null,
		"CorpusNumber": 6,
		"ApartmentNumber": 892,
		"Settlement": "Kongsvinger",
		"District": "Cherkasy oblast",
		"Region": "Midi-Pyrénées",
		"PostalCode": "76769"
	},
	{
		"Street": "Ede",
		"BuildingNumber": 46,
		"BuildingLetter": null,
		"CorpusNumber": 15,
		"ApartmentNumber": 921,
		"Settlement": "Oryol",
		"District": "New Brunswick",
		"Region": "Illinois",
		"PostalCode": "01410"
	},
	{
		"Street": "Secunda",
		"BuildingNumber": 199,
		"BuildingLetter": "B",
		"CorpusNumber": 17,
		"ApartmentNumber": 813,
		"Settlement": "Talca",
		"District": "South Island",
		"Region": "South Island",
		"PostalCode": "46802"
	},
	{
		"Street": "Hoofddorp",
		"BuildingNumber": 176,
		"BuildingLetter": "A",
		"CorpusNumber": 5,
		"ApartmentNumber": 757,
		"Settlement": "Porretta Terme",
		"District": "Maryland",
		"Region": "Luik",
		"PostalCode": "16565"
	},
	{
		"Street": "Wolverhampton",
		"BuildingNumber": 47,
		"BuildingLetter": "A",
		"CorpusNumber": 9,
		"ApartmentNumber": 637,
		"Settlement": "Okene",
		"District": "Sinaloa",
		"Region": "Mizoram",
		"PostalCode": "63756"
	},
	{
		"Street": "Hebei",
		"BuildingNumber": 221,
		"BuildingLetter": null,
		"CorpusNumber": 14,
		"ApartmentNumber": 909,
		"Settlement": "Chiclayo",
		"District": "Madrid",
		"Region": "Sindh",
		"PostalCode": "45440"
	},
	{
		"Street": "Changi",
		"BuildingNumber": 168,
		"BuildingLetter": "B",
		"CorpusNumber": 6,
		"ApartmentNumber": 119,
		"Settlement": "Hervey Bay",
		"District": "Montana",
		"Region": "Murmansk Oblast",
		"PostalCode": "23728"
	},
	{
		"Street": "Jerez de la Frontera",
		"BuildingNumber": 144,
		"BuildingLetter": "B",
		"CorpusNumber": 5,
		"ApartmentNumber": 547,
		"Settlement": "Phalaborwa",
		"District": "Gilgit Baltistan",
		"Region": "Kaduna",
		"PostalCode": "22426"
	},
	{
		"Street": "Galway",
		"BuildingNumber": 82,
		"BuildingLetter": "E",
		"CorpusNumber": 20,
		"ApartmentNumber": 117,
		"Settlement": "Asan",
		"District": "Manisa",
		"Region": "Kaluga Oblast",
		"PostalCode": "17481"
	},
	{
		"Street": "Ensenada",
		"BuildingNumber": 108,
		"BuildingLetter": "A",
		"CorpusNumber": 16,
		"ApartmentNumber": 117,
		"Settlement": "San Giovanni Suergiu",
		"District": "Rogaland",
		"Region": "Cajamarca",
		"PostalCode": "94598"
	},
	{
		"Street": "Ilagan",
		"BuildingNumber": 118,
		"BuildingLetter": "B",
		"CorpusNumber": 17,
		"ApartmentNumber": 237,
		"Settlement": "Almelo",
		"District": "Jönköpings län",
		"Region": "Kharkiv oblast",
		"PostalCode": "26572"
	},
	{
		"Street": "Galway",
		"BuildingNumber": 71,
		"BuildingLetter": "E",
		"CorpusNumber": 18,
		"ApartmentNumber": 531,
		"Settlement": "Juliaca",
		"District": "Prince Edward Island",
		"Region": "Pará",
		"PostalCode": "37375"
	},
	{
		"Street": "Nova Kakhovka",
		"BuildingNumber": 250,
		"BuildingLetter": "E",
		"CorpusNumber": 5,
		"ApartmentNumber": 835,
		"Settlement": "Awaran",
		"District": "Burgenland",
		"Region": "East Region",
		"PostalCode": "52255"
	},
	{
		"Street": "Smolensk",
		"BuildingNumber": 56,
		"BuildingLetter": "A",
		"CorpusNumber": 13,
		"ApartmentNumber": 678,
		"Settlement": "Ålesund",
		"District": "Lâm Đồng",
		"Region": "Limousin",
		"PostalCode": "23452"
	},
	{
		"Street": "Polokwane",
		"BuildingNumber": 97,
		"BuildingLetter": null,
		"CorpusNumber": 4,
		"ApartmentNumber": 476,
		"Settlement": "Campagna",
		"District": "South Jeolla",
		"Region": "Gelderland",
		"PostalCode": "97742"
	},
	{
		"Street": "Kano",
		"BuildingNumber": 182,
		"BuildingLetter": "B",
		"CorpusNumber": 17,
		"ApartmentNumber": 366,
		"Settlement": "Saratov",
		"District": "Oxfordshire",
		"Region": "North Island",
		"PostalCode": "64135"
	},
	{
		"Street": "Nizhny",
		"BuildingNumber": 164,
		"BuildingLetter": null,
		"CorpusNumber": 9,
		"ApartmentNumber": 76,
		"Settlement": "Queenstown",
		"District": "Vlaams-Brabant",
		"Region": "Hậu Giang",
		"PostalCode": "75884"
	},
	{
		"Street": "Pichilemu",
		"BuildingNumber": 63,
		"BuildingLetter": "A",
		"CorpusNumber": 16,
		"ApartmentNumber": 552,
		"Settlement": "Nelson",
		"District": "Carinthia",
		"Region": "Risaralda",
		"PostalCode": "82964"
	},
	{
		"Street": "Durban",
		"BuildingNumber": 131,
		"BuildingLetter": "A",
		"CorpusNumber": 8,
		"ApartmentNumber": 629,
		"Settlement": "Aparecida de Goiânia",
		"District": "Los Lagos",
		"Region": "Saint Petersburg City",
		"PostalCode": "29214"
	},
	{
		"Street": "Velden am Wörther See",
		"BuildingNumber": 9,
		"BuildingLetter": "A",
		"CorpusNumber": 3,
		"ApartmentNumber": 732,
		"Settlement": "General Lagos",
		"District": "Đồng Nai",
		"Region": "Jalisco",
		"PostalCode": "84275"
	},
	{
		"Street": "Germiston",
		"BuildingNumber": 20,
		"BuildingLetter": null,
		"CorpusNumber": 14,
		"ApartmentNumber": 957,
		"Settlement": "Bauchi",
		"District": "Balochistan",
		"Region": "Leinster",
		"PostalCode": "07874"
	},
	{
		"Street": "Vallentuna",
		"BuildingNumber": 199,
		"BuildingLetter": "A",
		"CorpusNumber": 11,
		"ApartmentNumber": 210,
		"Settlement": "Koolkerke",
		"District": "Antioquia",
		"Region": "Xīběi",
		"PostalCode": "63773"
	},
	{
		"Street": "Palma de Mallorca",
		"BuildingNumber": 170,
		"BuildingLetter": "A",
		"CorpusNumber": 14,
		"ApartmentNumber": 376,
		"Settlement": "Patarrá",
		"District": "North Region",
		"Region": "Caraga",
		"PostalCode": "77507"
	},
	{
		"Street": "Hinckley",
		"BuildingNumber": 67,
		"BuildingLetter": "B",
		"CorpusNumber": 2,
		"ApartmentNumber": 642,
		"Settlement": "Bundaberg",
		"District": "Dorset",
		"Region": "Umbria",
		"PostalCode": "27033"
	},
	{
		"Street": "Giarratana",
		"BuildingNumber": 227,
		"BuildingLetter": "A",
		"CorpusNumber": 6,
		"ApartmentNumber": 990,
		"Settlement": "Molde",
		"District": "Cao Bằng",
		"Region": "Ancash",
		"PostalCode": "52706"
	},
	{
		"Street": "Gijón",
		"BuildingNumber": 182,
		"BuildingLetter": "A",
		"CorpusNumber": 14,
		"ApartmentNumber": 610,
		"Settlement": "Hangu",
		"District": "Luxemburg",
		"Region": "Central Region",
		"PostalCode": "26095"
	},
	{
		"Street": "La Dorada",
		"BuildingNumber": 130,
		"BuildingLetter": null,
		"CorpusNumber": 17,
		"ApartmentNumber": 243,
		"Settlement": "Elbląg",
		"District": "Trà Vinh",
		"Region": "West Region",
		"PostalCode": "14310"
	},
	{
		"Street": "Foz do Iguaçu",
		"BuildingNumber": 22,
		"BuildingLetter": "E",
		"CorpusNumber": 11,
		"ApartmentNumber": 544,
		"Settlement": "Agartala",
		"District": "Bắc Kạn",
		"Region": "La Libertad",
		"PostalCode": "26472"
	},
	{
		"Street": "Oteppe",
		"BuildingNumber": 169,
		"BuildingLetter": "A",
		"CorpusNumber": 6,
		"ApartmentNumber": 349,
		"Settlement": "Sukkur",
		"District": "Nariño",
		"Region": "Assam",
		"PostalCode": "82218"
	},
	{
		"Street": "Shanxi",
		"BuildingNumber": 65,
		"BuildingLetter": "E",
		"CorpusNumber": 11,
		"ApartmentNumber": 196,
		"Settlement": "Iseyin",
		"District": "Corse",
		"Region": "Tiền Giang",
		"PostalCode": "22310"
	},
	{
		"Street": "Mielec",
		"BuildingNumber": 36,
		"BuildingLetter": "A",
		"CorpusNumber": 17,
		"ApartmentNumber": 666,
		"Settlement": "Jiangsu",
		"District": "Dōngběi",
		"Region": "Wigtownshire",
		"PostalCode": "12757"
	},
	{
		"Street": "San Pedro de Atacama",
		"BuildingNumber": 43,
		"BuildingLetter": null,
		"CorpusNumber": 13,
		"ApartmentNumber": 637,
		"Settlement": "Arnhem",
		"District": "Vorarlberg",
		"Region": "Delta",
		"PostalCode": "38814"
	},
	{
		"Street": "Kohima",
		"BuildingNumber": 18,
		"BuildingLetter": "B",
		"CorpusNumber": 4,
		"ApartmentNumber": 992,
		"Settlement": "Alajuela",
		"District": "Luhansk oblast",
		"Region": "Bedfordshire",
		"PostalCode": "88806"
	},
	{
		"Street": "Iquitos",
		"BuildingNumber": 201,
		"BuildingLetter": "E",
		"CorpusNumber": 15,
		"ApartmentNumber": 3,
		"Settlement": "Gruitrode",
		"District": "Balochistan",
		"Region": "Paraná",
		"PostalCode": "43426"
	},
	{
		"Street": "Olinda",
		"BuildingNumber": 97,
		"BuildingLetter": null,
		"CorpusNumber": 1,
		"ApartmentNumber": 422,
		"Settlement": "Bergen",
		"District": "Innlandet",
		"Region": "West Papua",
		"PostalCode": "25741"
	},
	{
		"Street": "Nazilli",
		"BuildingNumber": 47,
		"BuildingLetter": "B",
		"CorpusNumber": 14,
		"ApartmentNumber": 470,
		"Settlement": "Hunan",
		"District": "Kharkiv oblast",
		"Region": "Poltava oblast",
		"PostalCode": "47235"
	},
	{
		"Street": "Uitenhage",
		"BuildingNumber": 202,
		"BuildingLetter": "A",
		"CorpusNumber": 8,
		"ApartmentNumber": 563,
		"Settlement": "Gorontalo",
		"District": "Jönköpings län",
		"Region": "Ivano-Frankivsk oblast",
		"PostalCode": "13534"
	},
	{
		"Street": "Đồng Xoài",
		"BuildingNumber": 84,
		"BuildingLetter": "B",
		"CorpusNumber": 2,
		"ApartmentNumber": 833,
		"Settlement": "Samara",
		"District": "Pernambuco",
		"Region": "Hessen",
		"PostalCode": "25845"
	},
	{
		"Street": "Cañas",
		"BuildingNumber": 178,
		"BuildingLetter": "B",
		"CorpusNumber": 8,
		"ApartmentNumber": 412,
		"Settlement": "Cañas",
		"District": "Diyarbakır",
		"Region": "Biobío",
		"PostalCode": "27781"
	},
	{
		"Street": "Tân An",
		"BuildingNumber": 154,
		"BuildingLetter": "E",
		"CorpusNumber": 12,
		"ApartmentNumber": 404,
		"Settlement": "Gdynia",
		"District": "Sinaloa",
		"Region": "Kogi",
		"PostalCode": "31955"
	},
	{
		"Street": "Kitchener",
		"BuildingNumber": 40,
		"BuildingLetter": "E",
		"CorpusNumber": 10,
		"ApartmentNumber": 439,
		"Settlement": "Okigwe",
		"District": "Nuevo León",
		"Region": "Maranhão",
		"PostalCode": "86467"
	},
	{
		"Street": "Yekaterinburg",
		"BuildingNumber": 182,
		"BuildingLetter": "B",
		"CorpusNumber": 16,
		"ApartmentNumber": 199,
		"Settlement": "Cà Mau",
		"District": "Mecklenburg-Vorpommern",
		"Region": "Puntarenas",
		"PostalCode": "27353"
	},
	{
		"Street": "Hà Tĩnh",
		"BuildingNumber": 30,
		"BuildingLetter": null,
		"CorpusNumber": 3,
		"ApartmentNumber": 95,
		"Settlement": "Guizhou",
		"District": "Stockholms län",
		"Region": "Lubuskie",
		"PostalCode": "49698"
	},
	{
		"Street": "Almelo",
		"BuildingNumber": 186,
		"BuildingLetter": "E",
		"CorpusNumber": 19,
		"ApartmentNumber": 654,
		"Settlement": "Rustenburg",
		"District": "Puntarenas",
		"Region": "Vaupés",
		"PostalCode": "93244"
	},
	{
		"Street": "Torrevieja",
		"BuildingNumber": 165,
		"BuildingLetter": "E",
		"CorpusNumber": 6,
		"ApartmentNumber": 317,
		"Settlement": "Pskov",
		"District": "Podlaskie",
		"Region": "Kahramanmaraş",
		"PostalCode": "60112"
	},
	{
		"Street": "İzmit",
		"BuildingNumber": 218,
		"BuildingLetter": null,
		"CorpusNumber": 7,
		"ApartmentNumber": 548,
		"Settlement": "Bostaniçi",
		"District": "Munster",
		"Region": "Jönköpings län",
		"PostalCode": "01616"
	},
	{
		"Street": "Mjölby",
		"BuildingNumber": 11,
		"BuildingLetter": null,
		"CorpusNumber": 4,
		"ApartmentNumber": 393,
		"Settlement": "Valladolid",
		"District": "Munster",
		"Region": "Rogaland",
		"PostalCode": "19706"
	},
	{
		"Street": "Colchester",
		"BuildingNumber": 182,
		"BuildingLetter": "B",
		"CorpusNumber": 3,
		"ApartmentNumber": 318,
		"Settlement": "Izmail",
		"District": "Mazowieckie",
		"Region": "Zuid Holland",
		"PostalCode": "52883"
	},
	{
		"Street": "Yunnan",
		"BuildingNumber": 148,
		"BuildingLetter": "E",
		"CorpusNumber": 4,
		"ApartmentNumber": 127,
		"Settlement": "Liaoning",
		"District": "Western Cape",
		"Region": "Goiás",
		"PostalCode": "32671"
	},
	{
		"Street": "Magadan",
		"BuildingNumber": 113,
		"BuildingLetter": "B",
		"CorpusNumber": 12,
		"ApartmentNumber": 676,
		"Settlement": "Kristiansund",
		"District": "La Guajira",
		"Region": "Bicol Region",
		"PostalCode": "26053"
	},
	{
		"Street": "Vallentuna",
		"BuildingNumber": 6,
		"BuildingLetter": "B",
		"CorpusNumber": 4,
		"ApartmentNumber": 600,
		"Settlement": "Steinkjer",
		"District": "Metropolitana de Santiago",
		"Region": "Caraga",
		"PostalCode": "76114"
	},
	{
		"Street": "Tank",
		"BuildingNumber": 144,
		"BuildingLetter": null,
		"CorpusNumber": 16,
		"ApartmentNumber": 942,
		"Settlement": "Laguna Blanca",
		"District": "Maule",
		"Region": "Stockholms län",
		"PostalCode": "22851"
	},
	{
		"Street": "Invercargill",
		"BuildingNumber": 135,
		"BuildingLetter": "B",
		"CorpusNumber": 2,
		"ApartmentNumber": 488,
		"Settlement": "Vashkivtsi",
		"District": "Northwest Territories",
		"Region": "New South Wales",
		"PostalCode": "69221"
	},
	{
		"Street": "Latinne",
		"BuildingNumber": 61,
		"BuildingLetter": "B",
		"CorpusNumber": 1,
		"ApartmentNumber": 897,
		"Settlement": "Pematangsiantar",
		"District": "Baden Württemberg",
		"Region": "North Island",
		"PostalCode": "67294"
	},
	{
		"Street": "Follina",
		"BuildingNumber": 54,
		"BuildingLetter": "E",
		"CorpusNumber": 19,
		"ApartmentNumber": 938,
		"Settlement": "Forlì",
		"District": "Oyo",
		"Region": "Hessen",
		"PostalCode": "16809"
	},
	{
		"Street": "Den Helder",
		"BuildingNumber": 98,
		"BuildingLetter": "B",
		"CorpusNumber": 6,
		"ApartmentNumber": 107,
		"Settlement": "Bais",
		"District": "FATA",
		"Region": "Guanajuato",
		"PostalCode": "45778"
	},
	{
		"Street": "Deventer",
		"BuildingNumber": 115,
		"BuildingLetter": null,
		"CorpusNumber": 19,
		"ApartmentNumber": 226,
		"Settlement": "Sorsogon City",
		"District": "North West",
		"Region": "West Region",
		"PostalCode": "84735"
	},
	{
		"Street": "Piracicaba",
		"BuildingNumber": 139,
		"BuildingLetter": null,
		"CorpusNumber": 7,
		"ApartmentNumber": 575,
		"Settlement": "Battagram",
		"District": "Zeeland",
		"Region": "North Gyeongsang",
		"PostalCode": "38648"
	},
	{
		"Street": "Scalloway",
		"BuildingNumber": 216,
		"BuildingLetter": "A",
		"CorpusNumber": 3,
		"ApartmentNumber": 185,
		"Settlement": "Hòa Bình",
		"District": "Bursa",
		"Region": "North Jeolla",
		"PostalCode": "76746"
	},
	{
		"Street": "Manokwari",
		"BuildingNumber": 182,
		"BuildingLetter": "A",
		"CorpusNumber": 12,
		"ApartmentNumber": 766,
		"Settlement": "Mora",
		"District": "Tyrol",
		"Region": "Xīběi",
		"PostalCode": "86413"
	},
	{
		"Street": "Owerri",
		"BuildingNumber": 125,
		"BuildingLetter": "A",
		"CorpusNumber": 5,
		"ApartmentNumber": 466,
		"Settlement": "Basildon",
		"District": "Queensland",
		"Region": "Khyber Pakhtoonkhwa",
		"PostalCode": "43914"
	},
	{
		"Street": "Delhi",
		"BuildingNumber": 31,
		"BuildingLetter": "A",
		"CorpusNumber": 2,
		"ApartmentNumber": 840,
		"Settlement": "Trier",
		"District": "Araucanía",
		"Region": "Northern Territory",
		"PostalCode": "23751"
	},
	{
		"Street": "Choa Chu Kang",
		"BuildingNumber": 114,
		"BuildingLetter": "A",
		"CorpusNumber": 15,
		"ApartmentNumber": 874,
		"Settlement": "Wals-Siezenheim",
		"District": "Coahuila",
		"Region": "Pernambuco",
		"PostalCode": "56489"
	},
	{
		"Street": "Altach",
		"BuildingNumber": 171,
		"BuildingLetter": "A",
		"CorpusNumber": 18,
		"ApartmentNumber": 215,
		"Settlement": "Albury",
		"District": "Guaviare",
		"Region": "Cundinamarca",
		"PostalCode": "48466"
	},
	{
		"Street": "Bad Ischl",
		"BuildingNumber": 242,
		"BuildingLetter": "E",
		"CorpusNumber": 14,
		"ApartmentNumber": 227,
		"Settlement": "Enschede",
		"District": "Aydın",
		"Region": "Lambayeque",
		"PostalCode": "88289"
	},
	{
		"Street": "Cork",
		"BuildingNumber": 39,
		"BuildingLetter": "B",
		"CorpusNumber": 7,
		"ApartmentNumber": 659,
		"Settlement": "Iquique",
		"District": "Ulster",
		"Region": "Atacama",
		"PostalCode": "65663"
	},
	{
		"Street": "Bloemfontein",
		"BuildingNumber": 203,
		"BuildingLetter": null,
		"CorpusNumber": 2,
		"ApartmentNumber": 856,
		"Settlement": "Osgoode",
		"District": "North-East Region",
		"Region": "Nova Scotia",
		"PostalCode": "42974"
	},
	{
		"Street": "Thái Nguyên",
		"BuildingNumber": 10,
		"BuildingLetter": null,
		"CorpusNumber": 2,
		"ApartmentNumber": 170,
		"Settlement": "Leke",
		"District": "Styria",
		"Region": "Zhytomyr oblast",
		"PostalCode": "40926"
	},
	{
		"Street": "Bastia",
		"BuildingNumber": 78,
		"BuildingLetter": "B",
		"CorpusNumber": 14,
		"ApartmentNumber": 814,
		"Settlement": "Helena",
		"District": "South Australia",
		"Region": "Manipur",
		"PostalCode": "24843"
	},
	{
		"Street": "Chongqing",
		"BuildingNumber": 120,
		"BuildingLetter": "B",
		"CorpusNumber": 18,
		"ApartmentNumber": 210,
		"Settlement": "Nevers",
		"District": "Quebec",
		"Region": "Puntarenas",
		"PostalCode": "52697"
	},
	{
		"Street": "La Tebaida",
		"BuildingNumber": 114,
		"BuildingLetter": "E",
		"CorpusNumber": 19,
		"ApartmentNumber": 995,
		"Settlement": "Campos dos Goytacazes",
		"District": "O'Higgins",
		"Region": "Querétaro",
		"PostalCode": "42212"
	},
	{
		"Street": "Guadalupe",
		"BuildingNumber": 22,
		"BuildingLetter": null,
		"CorpusNumber": 16,
		"ApartmentNumber": 888,
		"Settlement": "Culiacán",
		"District": "Warmińsko-mazurskie",
		"Region": "Limpopo",
		"PostalCode": "15105"
	},
	{
		"Street": "Okigwe",
		"BuildingNumber": 211,
		"BuildingLetter": null,
		"CorpusNumber": 15,
		"ApartmentNumber": 869,
		"Settlement": "Lago Ranco",
		"District": "Limón",
		"Region": "Quindío",
		"PostalCode": "26365"
	},
	{
		"Street": "Gloucester",
		"BuildingNumber": 204,
		"BuildingLetter": "A",
		"CorpusNumber": 19,
		"ApartmentNumber": 643,
		"Settlement": "Irkutsk",
		"District": "Munster",
		"Region": "Molise",
		"PostalCode": "27353"
	},
	{
		"Street": "Mmabatho",
		"BuildingNumber": 194,
		"BuildingLetter": "A",
		"CorpusNumber": 15,
		"ApartmentNumber": 542,
		"Settlement": "Wekweti",
		"District": "Imo",
		"Region": "Lower Austria",
		"PostalCode": "47103"
	},
	{
		"Street": "Ligao",
		"BuildingNumber": 117,
		"BuildingLetter": "B",
		"CorpusNumber": 7,
		"ApartmentNumber": 512,
		"Settlement": "Ibagué",
		"District": "Oost-Vlaanderen",
		"Region": "Lima",
		"PostalCode": "71468"
	},
	{
		"Street": "Nicoya",
		"BuildingNumber": 6,
		"BuildingLetter": "E",
		"CorpusNumber": 17,
		"ApartmentNumber": 158,
		"Settlement": "Gwangyang",
		"District": "Vorarlberg",
		"Region": "Liguria",
		"PostalCode": "23566"
	},
	{
		"Street": "Katsina",
		"BuildingNumber": 12,
		"BuildingLetter": null,
		"CorpusNumber": 4,
		"ApartmentNumber": 123,
		"Settlement": "Aguachica",
		"District": "Dnipropetrovsk oblast",
		"Region": "Adana",
		"PostalCode": "48318"
	},
	{
		"Street": "Bengkulu",
		"BuildingNumber": 169,
		"BuildingLetter": "B",
		"CorpusNumber": 9,
		"ApartmentNumber": 727,
		"Settlement": "Springfield",
		"District": "Bình Định",
		"Region": "Ulster",
		"PostalCode": "71512"
	},
	{
		"Street": "Avesta",
		"BuildingNumber": 199,
		"BuildingLetter": null,
		"CorpusNumber": 3,
		"ApartmentNumber": 799,
		"Settlement": "Guangdong",
		"District": "Antwerpen",
		"Region": "Punjab",
		"PostalCode": "88368"
	},
	{
		"Street": "Lelystad",
		"BuildingNumber": 70,
		"BuildingLetter": "A",
		"CorpusNumber": 14,
		"ApartmentNumber": 9,
		"Settlement": "Marano Lagunare",
		"District": "Pará",
		"Region": "Zamboanga Peninsula",
		"PostalCode": "83197"
	},
	{
		"Street": "Port Pirie",
		"BuildingNumber": 140,
		"BuildingLetter": null,
		"CorpusNumber": 1,
		"ApartmentNumber": 390,
		"Settlement": "Huechuraba",
		"District": "Friesland",
		"Region": "Murcia",
		"PostalCode": "21343"
	},
	{
		"Street": "Portland",
		"BuildingNumber": 170,
		"BuildingLetter": "E",
		"CorpusNumber": 6,
		"ApartmentNumber": 229,
		"Settlement": "Waterbury",
		"District": "Osun",
		"Region": "Vologda Oblast",
		"PostalCode": "41102"
	},
	{
		"Street": "Waren",
		"BuildingNumber": 208,
		"BuildingLetter": "A",
		"CorpusNumber": 1,
		"ApartmentNumber": 19,
		"Settlement": "Hall in Tirol",
		"District": "Northern Mindanao",
		"Region": "Lombardia",
		"PostalCode": "35283"
	},
	{
		"Street": "Greater Hobart",
		"BuildingNumber": 219,
		"BuildingLetter": null,
		"CorpusNumber": 17,
		"ApartmentNumber": 158,
		"Settlement": "Faridabad",
		"District": "North Island",
		"Region": "Kharkiv oblast",
		"PostalCode": "04295"
	},
	{
		"Street": "Cao Bằng",
		"BuildingNumber": 189,
		"BuildingLetter": null,
		"CorpusNumber": 4,
		"ApartmentNumber": 709,
		"Settlement": "Paita",
		"District": "Zachodniopomorskie",
		"Region": "Adana",
		"PostalCode": "84225"
	},
	{
		"Street": "Suncheon",
		"BuildingNumber": 214,
		"BuildingLetter": "A",
		"CorpusNumber": 7,
		"ApartmentNumber": 83,
		"Settlement": "Murcia",
		"District": "Cartago",
		"Region": "South Island",
		"PostalCode": "43172"
	},
	{
		"Street": "Alajuela",
		"BuildingNumber": 73,
		"BuildingLetter": "E",
		"CorpusNumber": 8,
		"ApartmentNumber": 948,
		"Settlement": "Charlottetown",
		"District": "East Region",
		"Region": "Alsace",
		"PostalCode": "47678"
	},
	{
		"Street": "Chungju",
		"BuildingNumber": 201,
		"BuildingLetter": "B",
		"CorpusNumber": 9,
		"ApartmentNumber": 630,
		"Settlement": "Kapiti",
		"District": "Nordrhein-Westphalen",
		"Region": "Junín",
		"PostalCode": "30885"
	},
	{
		"Street": "Ikot Ekpene",
		"BuildingNumber": 182,
		"BuildingLetter": "A",
		"CorpusNumber": 20,
		"ApartmentNumber": 964,
		"Settlement": "Naarden",
		"District": "Los Ríos",
		"Region": "Azad Kashmir",
		"PostalCode": "87463"
	},
	{
		"Street": "Virginia Beach",
		"BuildingNumber": 85,
		"BuildingLetter": null,
		"CorpusNumber": 8,
		"ApartmentNumber": 958,
		"Settlement": "Starachowice",
		"District": "Davao Region",
		"Region": "Guerrero",
		"PostalCode": "26152"
	},
	{
		"Street": "Bama",
		"BuildingNumber": 73,
		"BuildingLetter": "A",
		"CorpusNumber": 6,
		"ApartmentNumber": 621,
		"Settlement": "San Pablo",
		"District": "Cajamarca",
		"Region": "Balochistan",
		"PostalCode": "65103"
	},
	{
		"Street": "Cour-sur-Heure",
		"BuildingNumber": 198,
		"BuildingLetter": "B",
		"CorpusNumber": 18,
		"ApartmentNumber": 12,
		"Settlement": "Sakhalin",
		"District": "Morelos",
		"Region": "Gaziantep",
		"PostalCode": "32442"
	},
	{
		"Street": "Serik",
		"BuildingNumber": 165,
		"BuildingLetter": "B",
		"CorpusNumber": 14,
		"ApartmentNumber": 752,
		"Settlement": "Dangjin",
		"District": "Campania",
		"Region": "Surrey",
		"PostalCode": "84426"
	},
	{
		"Street": "Ashoknagar-Kalyangarh",
		"BuildingNumber": 47,
		"BuildingLetter": "A",
		"CorpusNumber": 10,
		"ApartmentNumber": 82,
		"Settlement": "Volda",
		"District": "Risaralda",
		"Region": "Quebec",
		"PostalCode": "48586"
	},
	{
		"Street": "Guadalupe",
		"BuildingNumber": 102,
		"BuildingLetter": "B",
		"CorpusNumber": 5,
		"ApartmentNumber": 94,
		"Settlement": "Pioneer",
		"District": "Gyeonggi",
		"Region": "Nizhny Novgorod Oblast",
		"PostalCode": "99631"
	},
	{
		"Street": "Petrolina",
		"BuildingNumber": 85,
		"BuildingLetter": "B",
		"CorpusNumber": 12,
		"ApartmentNumber": 465,
		"Settlement": "Waitara",
		"District": "Pennsylvania",
		"Region": "Östergötlands län",
		"PostalCode": "16375"
	},
	{
		"Street": "Kungälv",
		"BuildingNumber": 59,
		"BuildingLetter": null,
		"CorpusNumber": 11,
		"ApartmentNumber": 432,
		"Settlement": "Jefferson City",
		"District": "Akwa Ibom",
		"Region": "Viken",
		"PostalCode": "58493"
	},
	{
		"Street": "Sabadell",
		"BuildingNumber": 164,
		"BuildingLetter": "A",
		"CorpusNumber": 6,
		"ApartmentNumber": 656,
		"Settlement": "Logroño",
		"District": "Atacama",
		"Region": "South Island",
		"PostalCode": "96336"
	},
	{
		"Street": "Raurkela Civil Township",
		"BuildingNumber": 208,
		"BuildingLetter": "B",
		"CorpusNumber": 17,
		"ApartmentNumber": 179,
		"Settlement": "Bingen",
		"District": "Arizona",
		"Region": "South Australia",
		"PostalCode": "38455"
	},
	{
		"Street": "Konotop",
		"BuildingNumber": 174,
		"BuildingLetter": "B",
		"CorpusNumber": 18,
		"ApartmentNumber": 549,
		"Settlement": "Indianapolis",
		"District": "Gävleborgs län",
		"Region": "Bình Phước",
		"PostalCode": "27102"
	},
	{
		"Street": "Puntarenas",
		"BuildingNumber": 183,
		"BuildingLetter": null,
		"CorpusNumber": 9,
		"ApartmentNumber": 352,
		"Settlement": "Lochranza",
		"District": "Hải Dương",
		"Region": "Navarra",
		"PostalCode": "50644"
	},
	{
		"Street": "La Unión",
		"BuildingNumber": 149,
		"BuildingLetter": "E",
		"CorpusNumber": 12,
		"ApartmentNumber": 462,
		"Settlement": "Troon",
		"District": "Zuid Holland",
		"Region": "British Columbia",
		"PostalCode": "72183"
	},
	{
		"Street": "Culiacán",
		"BuildingNumber": 133,
		"BuildingLetter": "E",
		"CorpusNumber": 15,
		"ApartmentNumber": 266,
		"Settlement": "Lozova",
		"District": "North Region",
		"Region": "Nam Định",
		"PostalCode": "34039"
	},
	{
		"Street": "Frasnes-lez-Gosselies",
		"BuildingNumber": 220,
		"BuildingLetter": "B",
		"CorpusNumber": 9,
		"ApartmentNumber": 749,
		"Settlement": "Tomsk",
		"District": "Wisconsin",
		"Region": "Cusco",
		"PostalCode": "77333"
	},
	{
		"Street": "Bengkulu",
		"BuildingNumber": 45,
		"BuildingLetter": "B",
		"CorpusNumber": 5,
		"ApartmentNumber": 555,
		"Settlement": "Aydın",
		"District": "Hamburg",
		"Region": "Bình Dương",
		"PostalCode": "37467"
	},
	{
		"Street": "Lo Prado",
		"BuildingNumber": 205,
		"BuildingLetter": "E",
		"CorpusNumber": 16,
		"ApartmentNumber": 592,
		"Settlement": "Flekkefjord",
		"District": "Lambayeque",
		"Region": "Bauchi",
		"PostalCode": "50959"
	},
	{
		"Street": "Logroño",
		"BuildingNumber": 210,
		"BuildingLetter": null,
		"CorpusNumber": 20,
		"ApartmentNumber": 997,
		"Settlement": "Sauda",
		"District": "Xīběi",
		"Region": "Cauca",
		"PostalCode": "41871"
	},
	{
		"Street": "Mohmand Agency",
		"BuildingNumber": 6,
		"BuildingLetter": null,
		"CorpusNumber": 17,
		"ApartmentNumber": 562,
		"Settlement": "Kaliningrad",
		"District": "Xīnán",
		"Region": "Anambra",
		"PostalCode": "28122"
	},
	{
		"Street": "Caen",
		"BuildingNumber": 225,
		"BuildingLetter": "E",
		"CorpusNumber": 2,
		"ApartmentNumber": 927,
		"Settlement": "Villa del Rosario",
		"District": "Huáběi",
		"Region": "Western Cape",
		"PostalCode": "32531"
	},
	{
		"Street": "Sawahlunto",
		"BuildingNumber": 81,
		"BuildingLetter": null,
		"CorpusNumber": 5,
		"ApartmentNumber": 38,
		"Settlement": "Ödemiş",
		"District": "Sindh",
		"Region": "South Chungcheong",
		"PostalCode": "22627"
	},
	{
		"Street": "Didim",
		"BuildingNumber": 219,
		"BuildingLetter": "A",
		"CorpusNumber": 5,
		"ApartmentNumber": 235,
		"Settlement": "Skövde",
		"District": "Sokoto",
		"Region": "Junín",
		"PostalCode": "53806"
	},
	{
		"Street": "Verzegnis",
		"BuildingNumber": 98,
		"BuildingLetter": "B",
		"CorpusNumber": 13,
		"ApartmentNumber": 129,
		"Settlement": "Arequipa",
		"District": "East Region",
		"Region": "Ternopil oblast",
		"PostalCode": "31407"
	},
	{
		"Street": "Madison",
		"BuildingNumber": 82,
		"BuildingLetter": null,
		"CorpusNumber": 16,
		"ApartmentNumber": 742,
		"Settlement": "Auldearn",
		"District": "Boyacá",
		"Region": "Kon Tum",
		"PostalCode": "24896"
	},
	{
		"Street": "Wanganui",
		"BuildingNumber": 90,
		"BuildingLetter": "E",
		"CorpusNumber": 8,
		"ApartmentNumber": 395,
		"Settlement": "Ceuta",
		"District": "Bạc Liêu",
		"Region": "Mersin",
		"PostalCode": "26782"
	},
	{
		"Street": "Tarma",
		"BuildingNumber": 220,
		"BuildingLetter": "E",
		"CorpusNumber": 11,
		"ApartmentNumber": 759,
		"Settlement": "Hunan",
		"District": "Orenburg Oblast",
		"Region": "Tolima",
		"PostalCode": "33823"
	},
	{
		"Street": "Guizhou",
		"BuildingNumber": 27,
		"BuildingLetter": "B",
		"CorpusNumber": 20,
		"ApartmentNumber": 903,
		"Settlement": "San José de Alajuela",
		"District": "Cartago",
		"Region": "Sonora",
		"PostalCode": "61193"
	},
	{
		"Street": "Sicuani",
		"BuildingNumber": 207,
		"BuildingLetter": null,
		"CorpusNumber": 11,
		"ApartmentNumber": 785,
		"Settlement": "Jiangxi",
		"District": "Ulster",
		"Region": "North Chungcheong",
		"PostalCode": "98518"
	},
	{
		"Street": "Istanbul",
		"BuildingNumber": 237,
		"BuildingLetter": "E",
		"CorpusNumber": 3,
		"ApartmentNumber": 328,
		"Settlement": "Queenstown",
		"District": "Eastern Cape",
		"Region": "Dalarnas län",
		"PostalCode": "77422"
	},
	{
		"Street": "Dublin",
		"BuildingNumber": 82,
		"BuildingLetter": "B",
		"CorpusNumber": 3,
		"ApartmentNumber": 105,
		"Settlement": "Kashmore",
		"District": "Queensland",
		"Region": "Long An",
		"PostalCode": "78821"
	},
	{
		"Street": "Gijón",
		"BuildingNumber": 174,
		"BuildingLetter": "A",
		"CorpusNumber": 9,
		"ApartmentNumber": 233,
		"Settlement": "Cañas",
		"District": "Connacht",
		"Region": "Yukon",
		"PostalCode": "18237"
	},
	{
		"Street": "Lochranza",
		"BuildingNumber": 13,
		"BuildingLetter": null,
		"CorpusNumber": 5,
		"ApartmentNumber": 521,
		"Settlement": "Mandurah",
		"District": "Jeju",
		"Region": "Sucre",
		"PostalCode": "89767"
	},
	{
		"Street": "Itanagar",
		"BuildingNumber": 45,
		"BuildingLetter": "E",
		"CorpusNumber": 11,
		"ApartmentNumber": 173,
		"Settlement": "Chattanooga",
		"District": "Maule",
		"Region": "North West",
		"PostalCode": "78176"
	},
	{
		"Street": "Belfast",
		"BuildingNumber": 105,
		"BuildingLetter": "A",
		"CorpusNumber": 3,
		"ApartmentNumber": 416,
		"Settlement": "Brakpan",
		"District": "Vienna",
		"Region": "North Island",
		"PostalCode": "44814"
	},
	{
		"Street": "Scena/Schenna",
		"BuildingNumber": 17,
		"BuildingLetter": null,
		"CorpusNumber": 19,
		"ApartmentNumber": 746,
		"Settlement": "Izmail",
		"District": "Valle d'Aosta",
		"Region": "Kaluga Oblast",
		"PostalCode": "94737"
	},
	{
		"Street": "Przemyśl",
		"BuildingNumber": 31,
		"BuildingLetter": "E",
		"CorpusNumber": 18,
		"ApartmentNumber": 189,
		"Settlement": "Sierning",
		"District": "Northern Territory",
		"Region": "Nunavut",
		"PostalCode": "98317"
	},
	{
		"Street": "Gävle",
		"BuildingNumber": 176,
		"BuildingLetter": null,
		"CorpusNumber": 17,
		"ApartmentNumber": 955,
		"Settlement": "Semarang",
		"District": "Michigan",
		"Region": "Moscow City",
		"PostalCode": "23430"
	},
	{
		"Street": "Falisolle",
		"BuildingNumber": 150,
		"BuildingLetter": "B",
		"CorpusNumber": 1,
		"ApartmentNumber": 217,
		"Settlement": "Seogwipo",
		"District": "Quảng Trị",
		"Region": "Paraíba",
		"PostalCode": "60121"
	},
	{
		"Street": "Mount Isa",
		"BuildingNumber": 175,
		"BuildingLetter": "E",
		"CorpusNumber": 10,
		"ApartmentNumber": 842,
		"Settlement": "Woking",
		"District": "Michigan",
		"Region": "Cartago",
		"PostalCode": "24735"
	},
	{
		"Street": "Butuan",
		"BuildingNumber": 84,
		"BuildingLetter": "B",
		"CorpusNumber": 14,
		"ApartmentNumber": 759,
		"Settlement": "Jecheon",
		"District": "Carinthia",
		"Region": "Munster",
		"PostalCode": "68124"
	},
	{
		"Street": "Cimitile",
		"BuildingNumber": 83,
		"BuildingLetter": "B",
		"CorpusNumber": 6,
		"ApartmentNumber": 861,
		"Settlement": "La Dorada",
		"District": "Bahia",
		"Region": "Midlothian",
		"PostalCode": "63673"
	},
	{
		"Street": "Guápiles",
		"BuildingNumber": 144,
		"BuildingLetter": "E",
		"CorpusNumber": 18,
		"ApartmentNumber": 140,
		"Settlement": "Cinco Esquinas",
		"District": "Salzburg",
		"Region": "Leinster",
		"PostalCode": "35711"
	},
	{
		"Street": "Vienna",
		"BuildingNumber": 137,
		"BuildingLetter": "B",
		"CorpusNumber": 8,
		"ApartmentNumber": 563,
		"Settlement": "Boon Lay",
		"District": "Prince Edward Island",
		"Region": "Leinster",
		"PostalCode": "50539"
	},
	{
		"Street": "Ledbury",
		"BuildingNumber": 18,
		"BuildingLetter": null,
		"CorpusNumber": 16,
		"ApartmentNumber": 204,
		"Settlement": "Almere",
		"District": "Luik",
		"Region": "Putumayo",
		"PostalCode": "33307"
	},
	{
		"Street": "Bal‰tre",
		"BuildingNumber": 132,
		"BuildingLetter": "E",
		"CorpusNumber": 1,
		"ApartmentNumber": 137,
		"Settlement": "Newcastle",
		"District": "West Papua",
		"Region": "Nunavut",
		"PostalCode": "62205"
	},
	{
		"Street": "Thabazimbi",
		"BuildingNumber": 249,
		"BuildingLetter": null,
		"CorpusNumber": 4,
		"ApartmentNumber": 611,
		"Settlement": "Los Andes",
		"District": "Gävleborgs län",
		"Region": "Guerrero",
		"PostalCode": "51164"
	},
	{
		"Street": "Traun",
		"BuildingNumber": 218,
		"BuildingLetter": "E",
		"CorpusNumber": 12,
		"ApartmentNumber": 749,
		"Settlement": "Söderhamn",
		"District": "Agder",
		"Region": "Montgomeryshire",
		"PostalCode": "34331"
	},
	{
		"Street": "Newport News",
		"BuildingNumber": 52,
		"BuildingLetter": null,
		"CorpusNumber": 16,
		"ApartmentNumber": 269,
		"Settlement": "Stekene",
		"District": "Upper Austria",
		"Region": "Bangsamoro",
		"PostalCode": "64889"
	},
	{
		"Street": "Ilbono",
		"BuildingNumber": 34,
		"BuildingLetter": null,
		"CorpusNumber": 6,
		"ApartmentNumber": 789,
		"Settlement": "Alençon",
		"District": "Piura",
		"Region": "Västra Götalands län",
		"PostalCode": "33690"
	},
	{
		"Street": "Xinjiang",
		"BuildingNumber": 31,
		"BuildingLetter": "A",
		"CorpusNumber": 9,
		"ApartmentNumber": 668,
		"Settlement": "Dublin",
		"District": "Connecticut",
		"Region": "Oryol Oblast",
		"PostalCode": "33978"
	},
	{
		"Street": "Shandong",
		"BuildingNumber": 207,
		"BuildingLetter": "E",
		"CorpusNumber": 7,
		"ApartmentNumber": 301,
		"Settlement": "George",
		"District": "Dolnośląskie",
		"Region": "Dōngběi",
		"PostalCode": "83652"
	},
	{
		"Street": "Bremerhaven",
		"BuildingNumber": 42,
		"BuildingLetter": "A",
		"CorpusNumber": 14,
		"ApartmentNumber": 531,
		"Settlement": "Sungei Kadut",
		"District": "Styria",
		"Region": "South Island",
		"PostalCode": "51494"
	},
	{
		"Street": "Aberystwyth",
		"BuildingNumber": 247,
		"BuildingLetter": "E",
		"CorpusNumber": 9,
		"ApartmentNumber": 712,
		"Settlement": "Chờ",
		"District": "Zhōngnán",
		"Region": "Quảng Trị",
		"PostalCode": "61344"
	},
	{
		"Street": "Québec City",
		"BuildingNumber": 29,
		"BuildingLetter": "A",
		"CorpusNumber": 3,
		"ApartmentNumber": 498,
		"Settlement": "Gbongan",
		"District": "Waals-Brabant",
		"Region": "Van",
		"PostalCode": "12767"
	},
	{
		"Street": "Jeju",
		"BuildingNumber": 137,
		"BuildingLetter": "B",
		"CorpusNumber": 12,
		"ApartmentNumber": 465,
		"Settlement": "Manado",
		"District": "Kirovohrad oblast",
		"Region": "South Jeolla",
		"PostalCode": "24487"
	},
	{
		"Street": "Pamplona",
		"BuildingNumber": 217,
		"BuildingLetter": "B",
		"CorpusNumber": 19,
		"ApartmentNumber": 628,
		"Settlement": "Almere",
		"District": "South Island",
		"Region": "Lạng Sơn",
		"PostalCode": "21087"
	},
	{
		"Street": "Puerto Varas",
		"BuildingNumber": 2,
		"BuildingLetter": "A",
		"CorpusNumber": 7,
		"ApartmentNumber": 436,
		"Settlement": "Pamplona",
		"District": "West Sumatra",
		"Region": "Hatay",
		"PostalCode": "02481"
	},
	{
		"Street": "Tengah",
		"BuildingNumber": 116,
		"BuildingLetter": "E",
		"CorpusNumber": 15,
		"ApartmentNumber": 221,
		"Settlement": "Sete Lagoas",
		"District": "Balıkesir",
		"Region": "Tasmania",
		"PostalCode": "68314"
	},
	{
		"Street": "Hebei",
		"BuildingNumber": 121,
		"BuildingLetter": "E",
		"CorpusNumber": 11,
		"ApartmentNumber": 598,
		"Settlement": "Wagga Wagga",
		"District": "Coquimbo",
		"Region": "Lima",
		"PostalCode": "50185"
	},
	{
		"Street": "Liaoning",
		"BuildingNumber": 150,
		"BuildingLetter": "B",
		"CorpusNumber": 19,
		"ApartmentNumber": 957,
		"Settlement": "Kashmore",
		"District": "Hamburg",
		"Region": "South Island",
		"PostalCode": "18577"
	},
	{
		"Street": "Wangaratta",
		"BuildingNumber": 220,
		"BuildingLetter": "E",
		"CorpusNumber": 13,
		"ApartmentNumber": 334,
		"Settlement": "Maasin",
		"District": "National Capital Region",
		"Region": "Montana",
		"PostalCode": "75338"
	},
	{
		"Street": "Granada",
		"BuildingNumber": 117,
		"BuildingLetter": "A",
		"CorpusNumber": 9,
		"ApartmentNumber": 940,
		"Settlement": "Radom",
		"District": "Veracruz",
		"Region": "Niedersachsen",
		"PostalCode": "47495"
	},
	{
		"Street": "Stargard Szczeciński",
		"BuildingNumber": 244,
		"BuildingLetter": "E",
		"CorpusNumber": 7,
		"ApartmentNumber": 799,
		"Settlement": "Watson Lake",
		"District": "Murmansk Oblast",
		"Region": "Zakarpattia oblast",
		"PostalCode": "41232"
	},
	{
		"Street": "Palma de Mallorca",
		"BuildingNumber": 90,
		"BuildingLetter": "B",
		"CorpusNumber": 11,
		"ApartmentNumber": 804,
		"Settlement": "San Antonio",
		"District": "Ancash",
		"Region": "Noord Holland",
		"PostalCode": "73045"
	},
	{
		"Street": "Puno",
		"BuildingNumber": 218,
		"BuildingLetter": "B",
		"CorpusNumber": 7,
		"ApartmentNumber": 491,
		"Settlement": "San Luis Potosí",
		"District": "North Sulawesi",
		"Region": "Rio Grande do Sul",
		"PostalCode": "68158"
	},
	{
		"Street": "Yaroslavl",
		"BuildingNumber": 198,
		"BuildingLetter": "A",
		"CorpusNumber": 15,
		"ApartmentNumber": 38,
		"Settlement": "Saint-Malo",
		"District": "Lambayeque",
		"Region": "Bremen",
		"PostalCode": "14293"
	},
	{
		"Street": "Oostende",
		"BuildingNumber": 46,
		"BuildingLetter": "B",
		"CorpusNumber": 8,
		"ApartmentNumber": 19,
		"Settlement": "Creil",
		"District": "Stirlingshire",
		"Region": "Sląskie",
		"PostalCode": "65631"
	},
	{
		"Street": "General Lagos",
		"BuildingNumber": 219,
		"BuildingLetter": "B",
		"CorpusNumber": 13,
		"ApartmentNumber": 739,
		"Settlement": "The Hague",
		"District": "Västra Götalands län",
		"Region": "Luik",
		"PostalCode": "26729"
	},
	{
		"Street": "Westerlo",
		"BuildingNumber": 185,
		"BuildingLetter": "A",
		"CorpusNumber": 11,
		"ApartmentNumber": 359,
		"Settlement": "Qinghai",
		"District": "Norte de Santander",
		"Region": "Borno",
		"PostalCode": "49947"
	},
	{
		"Street": "Kristiansund",
		"BuildingNumber": 20,
		"BuildingLetter": "E",
		"CorpusNumber": 14,
		"ApartmentNumber": 434,
		"Settlement": "Belfast",
		"District": "Jeju",
		"Region": "Orkney",
		"PostalCode": "14815"
	},
	{
		"Street": "Miramichi",
		"BuildingNumber": 175,
		"BuildingLetter": "A",
		"CorpusNumber": 19,
		"ApartmentNumber": 658,
		"Settlement": "Gols",
		"District": "Montana",
		"Region": "Gävleborgs län",
		"PostalCode": "72279"
	},
	{
		"Street": "Cà Mau",
		"BuildingNumber": 190,
		"BuildingLetter": "A",
		"CorpusNumber": 10,
		"ApartmentNumber": 600,
		"Settlement": "Galway",
		"District": "Saarland",
		"Region": "Rogaland",
		"PostalCode": "71456"
	},
	{
		"Street": "Cardiff",
		"BuildingNumber": 215,
		"BuildingLetter": "E",
		"CorpusNumber": 10,
		"ApartmentNumber": 810,
		"Settlement": "Hulst",
		"District": "Anambra",
		"Region": "Paraná",
		"PostalCode": "51263"
	},
	{
		"Street": "Bauchi",
		"BuildingNumber": 10,
		"BuildingLetter": "A",
		"CorpusNumber": 9,
		"ApartmentNumber": 877,
		"Settlement": "Mulhouse",
		"District": "Trøndelag",
		"Region": "Opolskie",
		"PostalCode": "08163"
	},
	{
		"Street": "Mukachevo",
		"BuildingNumber": 212,
		"BuildingLetter": "A",
		"CorpusNumber": 18,
		"ApartmentNumber": 314,
		"Settlement": "Manukau",
		"District": "Warmińsko-mazurskie",
		"Region": "Midi-Pyrénées",
		"PostalCode": "62147"
	},
	{
		"Street": "Watson Lake",
		"BuildingNumber": 103,
		"BuildingLetter": "B",
		"CorpusNumber": 4,
		"ApartmentNumber": 7,
		"Settlement": "Drachten",
		"District": "Guainía",
		"Region": "Nunavut",
		"PostalCode": "72431"
	},
	{
		"Street": "Seshego",
		"BuildingNumber": 51,
		"BuildingLetter": "E",
		"CorpusNumber": 16,
		"ApartmentNumber": 47,
		"Settlement": "Liaoning",
		"District": "Upper Austria",
		"Region": "West Nusa Tenggara",
		"PostalCode": "63026"
	},
	{
		"Street": "Wanneroo",
		"BuildingNumber": 207,
		"BuildingLetter": "A",
		"CorpusNumber": 15,
		"ApartmentNumber": 149,
		"Settlement": "Namsos",
		"District": "Veracruz",
		"Region": "Kujawsko-pomorskie",
		"PostalCode": "45582"
	},
	{
		"Street": "Whitehorse",
		"BuildingNumber": 143,
		"BuildingLetter": null,
		"CorpusNumber": 18,
		"ApartmentNumber": 26,
		"Settlement": "São Gonçalo",
		"District": "Osun",
		"Region": "North West",
		"PostalCode": "70210"
	},
	{
		"Street": "Manila",
		"BuildingNumber": 65,
		"BuildingLetter": "B",
		"CorpusNumber": 18,
		"ApartmentNumber": 785,
		"Settlement": "Bloemfontein",
		"District": "Maharastra",
		"Region": "Minas Gerais",
		"PostalCode": "46544"
	},
	{
		"Street": "Trondheim",
		"BuildingNumber": 230,
		"BuildingLetter": "B",
		"CorpusNumber": 11,
		"ApartmentNumber": 815,
		"Settlement": "Araban",
		"District": "Innlandet",
		"Region": "Pomorskie",
		"PostalCode": "06377"
	},
	{
		"Street": "Puerto Princesa",
		"BuildingNumber": 41,
		"BuildingLetter": null,
		"CorpusNumber": 13,
		"ApartmentNumber": 399,
		"Settlement": "Dublin",
		"District": "Vestland",
		"Region": "Rio Grande do Sul",
		"PostalCode": "84628"
	},
	{
		"Street": "Chiclayo",
		"BuildingNumber": 26,
		"BuildingLetter": "E",
		"CorpusNumber": 14,
		"ApartmentNumber": 371,
		"Settlement": "Lelystad",
		"District": "North Chungcheong",
		"Region": "Iowa",
		"PostalCode": "13717"
	},
	{
		"Street": "Vashkivtsi",
		"BuildingNumber": 235,
		"BuildingLetter": "B",
		"CorpusNumber": 13,
		"ApartmentNumber": 531,
		"Settlement": "Verrayes",
		"District": "Heredia",
		"Region": "Liguria",
		"PostalCode": "24685"
	},
	{
		"Street": "Mercedes",
		"BuildingNumber": 112,
		"BuildingLetter": null,
		"CorpusNumber": 3,
		"ApartmentNumber": 586,
		"Settlement": "Puerto Princesa",
		"District": "Sonora",
		"Region": "Castilla y León",
		"PostalCode": "92117"
	},
	{
		"Street": "Nelspruit",
		"BuildingNumber": 62,
		"BuildingLetter": "B",
		"CorpusNumber": 8,
		"ApartmentNumber": 5,
		"Settlement": "Katsina",
		"District": "Western Cape",
		"Region": "Michoacán",
		"PostalCode": "25231"
	},
	{
		"Street": "Hougang",
		"BuildingNumber": 217,
		"BuildingLetter": "E",
		"CorpusNumber": 11,
		"ApartmentNumber": 552,
		"Settlement": "Belfort",
		"District": "Rogaland",
		"Region": "Antwerpen",
		"PostalCode": "71352"
	},
	{
		"Street": "Ilagan",
		"BuildingNumber": 96,
		"BuildingLetter": "A",
		"CorpusNumber": 17,
		"ApartmentNumber": 294,
		"Settlement": "Klerksdorp",
		"District": "Akwa Ibom",
		"Region": "Languedoc-Roussillon",
		"PostalCode": "36971"
	},
	{
		"Street": "Vänersborg",
		"BuildingNumber": 232,
		"BuildingLetter": "A",
		"CorpusNumber": 4,
		"ApartmentNumber": 782,
		"Settlement": "Nicoya",
		"District": "North-East Region",
		"Region": "Midlothian",
		"PostalCode": "60280"
	},
	{
		"Street": "Candon",
		"BuildingNumber": 52,
		"BuildingLetter": "A",
		"CorpusNumber": 16,
		"ApartmentNumber": 685,
		"Settlement": "Yahyalı",
		"District": "Kharkiv oblast",
		"Region": "Vestfold og Telemark",
		"PostalCode": "38188"
	},
	{
		"Street": "Meerle",
		"BuildingNumber": 198,
		"BuildingLetter": null,
		"CorpusNumber": 14,
		"ApartmentNumber": 116,
		"Settlement": "Hollabrunn",
		"District": "Dadra and Nagar Haveli",
		"Region": "North Island",
		"PostalCode": "46271"
	},
	{
		"Street": "João Pessoa",
		"BuildingNumber": 140,
		"BuildingLetter": "B",
		"CorpusNumber": 14,
		"ApartmentNumber": 376,
		"Settlement": "Raufoss",
		"District": "Khyber Pakhtoonkhwa",
		"Region": "Delta",
		"PostalCode": "73471"
	},
	{
		"Street": "Siedlce",
		"BuildingNumber": 210,
		"BuildingLetter": "B",
		"CorpusNumber": 9,
		"ApartmentNumber": 435,
		"Settlement": "Florencia",
		"District": "North Island",
		"Region": "Caraga",
		"PostalCode": "28756"
	},
	{
		"Street": "Kristiansand",
		"BuildingNumber": 134,
		"BuildingLetter": "A",
		"CorpusNumber": 15,
		"ApartmentNumber": 532,
		"Settlement": "Gladstone",
		"District": "Munster",
		"Region": "Valle del Cauca",
		"PostalCode": "24029"
	},
	{
		"Street": "Jeju",
		"BuildingNumber": 122,
		"BuildingLetter": null,
		"CorpusNumber": 6,
		"ApartmentNumber": 939,
		"Settlement": "Pinkafeld",
		"District": "Waals-Brabant",
		"Region": "North Region",
		"PostalCode": "77212"
	},
	{
		"Street": "Chortkiv",
		"BuildingNumber": 50,
		"BuildingLetter": "A",
		"CorpusNumber": 20,
		"ApartmentNumber": 443,
		"Settlement": "Portsmouth",
		"District": "East Region",
		"Region": "Gävleborgs län",
		"PostalCode": "88350"
	},
	{
		"Street": "Tanjung Pinang",
		"BuildingNumber": 136,
		"BuildingLetter": "E",
		"CorpusNumber": 17,
		"ApartmentNumber": 769,
		"Settlement": "Zuccarello",
		"District": "Connacht",
		"Region": "Michigan",
		"PostalCode": "60018"
	},
	{
		"Street": "Mmabatho",
		"BuildingNumber": 173,
		"BuildingLetter": "B",
		"CorpusNumber": 5,
		"ApartmentNumber": 708,
		"Settlement": "Newbury",
		"District": "Brandenburg",
		"Region": "West Java",
		"PostalCode": "87645"
	},
	{
		"Street": "Lodelinsart",
		"BuildingNumber": 89,
		"BuildingLetter": "B",
		"CorpusNumber": 16,
		"ApartmentNumber": 674,
		"Settlement": "Bismil",
		"District": "Hưng Yên",
		"Region": "Arunachal Pradesh",
		"PostalCode": "16215"
	},
	{
		"Street": "Terme",
		"BuildingNumber": 62,
		"BuildingLetter": "B",
		"CorpusNumber": 3,
		"ApartmentNumber": 835,
		"Settlement": "Arauca",
		"District": "North Region",
		"Region": "Free State",
		"PostalCode": "96838"
	},
	{
		"Street": "Schwechat",
		"BuildingNumber": 20,
		"BuildingLetter": "B",
		"CorpusNumber": 11,
		"ApartmentNumber": 439,
		"Settlement": "Dover",
		"District": "Northumberland",
		"Region": "Overijssel",
		"PostalCode": "43894"
	},
	{
		"Street": "Charlottetown",
		"BuildingNumber": 220,
		"BuildingLetter": "E",
		"CorpusNumber": 2,
		"ApartmentNumber": 208,
		"Settlement": "Odessa",
		"District": "Australian Capital Territory",
		"Region": "Meta",
		"PostalCode": "41732"
	},
	{
		"Street": "Yishun",
		"BuildingNumber": 77,
		"BuildingLetter": "A",
		"CorpusNumber": 15,
		"ApartmentNumber": 675,
		"Settlement": "Lublin",
		"District": "South Kalimantan",
		"Region": "Meta",
		"PostalCode": "41418"
	},
	{
		"Street": "Hopefield",
		"BuildingNumber": 240,
		"BuildingLetter": "E",
		"CorpusNumber": 8,
		"ApartmentNumber": 8,
		"Settlement": "Völkermarkt",
		"District": "Free State",
		"Region": "Special Capital Region of Jakarta",
		"PostalCode": "01834"
	},
	{
		"Street": "Tambov",
		"BuildingNumber": 104,
		"BuildingLetter": "A",
		"CorpusNumber": 18,
		"ApartmentNumber": 806,
		"Settlement": "Villahermosa",
		"District": "Brussels Hoofdstedelijk Gewest",
		"Region": "British Columbia",
		"PostalCode": "76348"
	},
	{
		"Street": "Celaya",
		"BuildingNumber": 157,
		"BuildingLetter": "E",
		"CorpusNumber": 7,
		"ApartmentNumber": 945,
		"Settlement": "Wonju",
		"District": "Sachsen",
		"Region": "Lower Austria",
		"PostalCode": "92068"
	},
	{
		"Street": "Nässjö",
		"BuildingNumber": 195,
		"BuildingLetter": null,
		"CorpusNumber": 10,
		"ApartmentNumber": 50,
		"Settlement": "Bergama",
		"District": "Ancash",
		"Region": "Arkhangelsk Oblast",
		"PostalCode": "18864"
	},
	{
		"Street": "Wałbrzych",
		"BuildingNumber": 208,
		"BuildingLetter": "A",
		"CorpusNumber": 12,
		"ApartmentNumber": 136,
		"Settlement": "Biñan",
		"District": "Tyrol",
		"Region": "Gävleborgs län",
		"PostalCode": "92153"
	},
	{
		"Street": "Awka",
		"BuildingNumber": 204,
		"BuildingLetter": "E",
		"CorpusNumber": 19,
		"ApartmentNumber": 816,
		"Settlement": "Seletar",
		"District": "Zeeland",
		"Region": "Ohio",
		"PostalCode": "81139"
	},
	{
		"Street": "Gore",
		"BuildingNumber": 18,
		"BuildingLetter": null,
		"CorpusNumber": 8,
		"ApartmentNumber": 842,
		"Settlement": "Przemyśl",
		"District": "Ulster",
		"Region": "Lviv oblast",
		"PostalCode": "07104"
	},
	{
		"Street": "Mala",
		"BuildingNumber": 86,
		"BuildingLetter": "A",
		"CorpusNumber": 18,
		"ApartmentNumber": 174,
		"Settlement": "Dallas",
		"District": "South Island",
		"Region": "Paraíba",
		"PostalCode": "98136"
	},
	{
		"Street": "Caxias do Sul",
		"BuildingNumber": 51,
		"BuildingLetter": "B",
		"CorpusNumber": 10,
		"ApartmentNumber": 867,
		"Settlement": "Troyes",
		"District": "Vestfold og Telemark",
		"Region": "Odessa oblast",
		"PostalCode": "62866"
	},
	{
		"Street": "Apartadó",
		"BuildingNumber": 221,
		"BuildingLetter": "E",
		"CorpusNumber": 9,
		"ApartmentNumber": 38,
		"Settlement": "Delft",
		"District": "Hertfordshire",
		"Region": "Kerala",
		"PostalCode": "67202"
	},
	{
		"Street": "Rothes",
		"BuildingNumber": 152,
		"BuildingLetter": "A",
		"CorpusNumber": 6,
		"ApartmentNumber": 880,
		"Settlement": "Temuka",
		"District": "Puntarenas",
		"Region": "Dadra and Nagar Haveli",
		"PostalCode": "44130"
	},
	{
		"Street": "Mexico City",
		"BuildingNumber": 186,
		"BuildingLetter": null,
		"CorpusNumber": 12,
		"ApartmentNumber": 348,
		"Settlement": "Cajazeiras",
		"District": "Vienna",
		"Region": "Yucatán",
		"PostalCode": "02771"
	},
	{
		"Street": "Calapan",
		"BuildingNumber": 179,
		"BuildingLetter": null,
		"CorpusNumber": 12,
		"ApartmentNumber": 337,
		"Settlement": "Darwin",
		"District": "Victoria",
		"Region": "Lower Austria",
		"PostalCode": "40376"
	},
	{
		"Street": "Lamitan",
		"BuildingNumber": 225,
		"BuildingLetter": "A",
		"CorpusNumber": 1,
		"ApartmentNumber": 992,
		"Settlement": "Montgomery",
		"District": "Michoacán",
		"Region": "North Island",
		"PostalCode": "13212"
	},
	{
		"Street": "Kumluca",
		"BuildingNumber": 213,
		"BuildingLetter": "E",
		"CorpusNumber": 12,
		"ApartmentNumber": 1,
		"Settlement": "North Berwick",
		"District": "Limón",
		"Region": "South Kalimantan",
		"PostalCode": "24196"
	},
	{
		"Street": "Queenstown",
		"BuildingNumber": 88,
		"BuildingLetter": "B",
		"CorpusNumber": 19,
		"ApartmentNumber": 702,
		"Settlement": "Berlin",
		"District": "Cantabria",
		"Region": "Junín",
		"PostalCode": "35297"
	},
	{
		"Street": "Elbistan",
		"BuildingNumber": 239,
		"BuildingLetter": "B",
		"CorpusNumber": 4,
		"ApartmentNumber": 288,
		"Settlement": "Canberra",
		"District": "Ulster",
		"Region": "Utrecht",
		"PostalCode": "38754"
	},
	{
		"Street": "Mazatlán",
		"BuildingNumber": 19,
		"BuildingLetter": "A",
		"CorpusNumber": 17,
		"ApartmentNumber": 532,
		"Settlement": "Camaçari",
		"District": "Guanacaste",
		"Region": "Flevoland",
		"PostalCode": "54063"
	},
	{
		"Street": "Vernon",
		"BuildingNumber": 173,
		"BuildingLetter": "B",
		"CorpusNumber": 19,
		"ApartmentNumber": 430,
		"Settlement": "Cockburn",
		"District": "Quebec",
		"Region": "Jeju",
		"PostalCode": "22148"
	},
	{
		"Street": "Ciudad Real",
		"BuildingNumber": 132,
		"BuildingLetter": "B",
		"CorpusNumber": 1,
		"ApartmentNumber": 964,
		"Settlement": "Dubno",
		"District": "Utrecht",
		"Region": "Zuid Holland",
		"PostalCode": "73529"
	},
	{
		"Street": "Saint-Malo",
		"BuildingNumber": 194,
		"BuildingLetter": "E",
		"CorpusNumber": 14,
		"ApartmentNumber": 437,
		"Settlement": "Seletar",
		"District": "Ross-shire",
		"Region": "Drenthe",
		"PostalCode": "73405"
	},
	{
		"Street": "Wrocław",
		"BuildingNumber": 217,
		"BuildingLetter": "B",
		"CorpusNumber": 15,
		"ApartmentNumber": 970,
		"Settlement": "Raufoss",
		"District": "North Region",
		"Region": "Vĩnh Phúc",
		"PostalCode": "73236"
	},
	{
		"Street": "Santander",
		"BuildingNumber": 51,
		"BuildingLetter": "B",
		"CorpusNumber": 13,
		"ApartmentNumber": 7,
		"Settlement": "Bellevue",
		"District": "Jalisco",
		"Region": "Munster",
		"PostalCode": "28272"
	},
	{
		"Street": "North Dum Dum",
		"BuildingNumber": 6,
		"BuildingLetter": null,
		"CorpusNumber": 20,
		"ApartmentNumber": 332,
		"Settlement": "Clementi",
		"District": "Antwerpen",
		"Region": "Madhya Pradesh",
		"PostalCode": "67989"
	},
	{
		"Street": "Fairbanks",
		"BuildingNumber": 100,
		"BuildingLetter": "E",
		"CorpusNumber": 14,
		"ApartmentNumber": 284,
		"Settlement": "Suwałki",
		"District": "KwaZulu-Natal",
		"Region": "O'Higgins",
		"PostalCode": "15260"
	},
	{
		"Street": "Pencahue",
		"BuildingNumber": 46,
		"BuildingLetter": "A",
		"CorpusNumber": 3,
		"ApartmentNumber": 577,
		"Settlement": "Santa Rosa de Cabal",
		"District": "Goiás",
		"Region": "Idaho",
		"PostalCode": "67681"
	},
	{
		"Street": "Jinju",
		"BuildingNumber": 163,
		"BuildingLetter": "B",
		"CorpusNumber": 18,
		"ApartmentNumber": 54,
		"Settlement": "Großpetersdorf",
		"District": "Queensland",
		"Region": "Biobío",
		"PostalCode": "34298"
	},
	{
		"Street": "Onitsha",
		"BuildingNumber": 79,
		"BuildingLetter": null,
		"CorpusNumber": 13,
		"ApartmentNumber": 848,
		"Settlement": "Estevan",
		"District": "Osun",
		"Region": "Inverness-shire",
		"PostalCode": "22143"
	},
	{
		"Street": "Daman",
		"BuildingNumber": 8,
		"BuildingLetter": "E",
		"CorpusNumber": 7,
		"ApartmentNumber": 819,
		"Settlement": "Antártica",
		"District": "Haute-Normandie",
		"Region": "Central Region",
		"PostalCode": "25832"
	},
	{
		"Street": "Rahimyar Khan",
		"BuildingNumber": 109,
		"BuildingLetter": "A",
		"CorpusNumber": 19,
		"ApartmentNumber": 717,
		"Settlement": "Paulista",
		"District": "Leinster",
		"Region": "Khyber Pakhtoonkhwa",
		"PostalCode": "84873"
	},
	{
		"Street": "Chicago",
		"BuildingNumber": 42,
		"BuildingLetter": "B",
		"CorpusNumber": 17,
		"ApartmentNumber": 353,
		"Settlement": "Neusiedl am See",
		"District": "North Chungcheong",
		"Region": "Bayern",
		"PostalCode": "16337"
	},
	{
		"Street": "Modena",
		"BuildingNumber": 249,
		"BuildingLetter": "A",
		"CorpusNumber": 12,
		"ApartmentNumber": 763,
		"Settlement": "Nelspruit",
		"District": "Leinster",
		"Region": "Huáběi",
		"PostalCode": "41750"
	},
	{
		"Street": "Malloa",
		"BuildingNumber": 114,
		"BuildingLetter": "B",
		"CorpusNumber": 12,
		"ApartmentNumber": 139,
		"Settlement": "Arendal",
		"District": "Trentino-Alto Adige",
		"Region": "Cordillera Administrative Region",
		"PostalCode": "33196"
	},
	{
		"Street": "Whitburn",
		"BuildingNumber": 212,
		"BuildingLetter": "E",
		"CorpusNumber": 1,
		"ApartmentNumber": 957,
		"Settlement": "Cañas",
		"District": "Coquimbo",
		"Region": "Rio de Janeiro",
		"PostalCode": "64688"
	},
	{
		"Street": "Canberra",
		"BuildingNumber": 238,
		"BuildingLetter": "E",
		"CorpusNumber": 10,
		"ApartmentNumber": 757,
		"Settlement": "Manavgat",
		"District": "Devon",
		"Region": "Odisha",
		"PostalCode": "88873"
	},
	{
		"Street": "Fortaleza",
		"BuildingNumber": 133,
		"BuildingLetter": "A",
		"CorpusNumber": 7,
		"ApartmentNumber": 981,
		"Settlement": "Knittelfeld",
		"District": "Roxburghshire",
		"Region": "Oslo",
		"PostalCode": "58133"
	},
	{
		"Street": "Mataram",
		"BuildingNumber": 114,
		"BuildingLetter": "B",
		"CorpusNumber": 12,
		"ApartmentNumber": 668,
		"Settlement": "Bedok",
		"District": "Toscana",
		"Region": "Newfoundland and Labrador",
		"PostalCode": "14537"
	},
	{
		"Street": "Cambridge",
		"BuildingNumber": 187,
		"BuildingLetter": null,
		"CorpusNumber": 17,
		"ApartmentNumber": 626,
		"Settlement": "Tire",
		"District": "Gauteng",
		"Region": "Magallanes y Antártica Chilena",
		"PostalCode": "82656"
	},
	{
		"Street": "Kempten",
		"BuildingNumber": 225,
		"BuildingLetter": "B",
		"CorpusNumber": 3,
		"ApartmentNumber": 981,
		"Settlement": "Heredia",
		"District": "Marche",
		"Region": "Munster",
		"PostalCode": "42826"
	},
	{
		"Street": "Lviv",
		"BuildingNumber": 233,
		"BuildingLetter": "E",
		"CorpusNumber": 15,
		"ApartmentNumber": 483,
		"Settlement": "Kavaratti",
		"District": "Xīnán",
		"Region": "South Island",
		"PostalCode": "35263"
	},
	{
		"Street": "Frederikstad",
		"BuildingNumber": 229,
		"BuildingLetter": null,
		"CorpusNumber": 18,
		"ApartmentNumber": 874,
		"Settlement": "Zirl",
		"District": "Limón",
		"Region": "Lambayeque",
		"PostalCode": "51538"
	},
	{
		"Street": "Mosjøen",
		"BuildingNumber": 208,
		"BuildingLetter": "E",
		"CorpusNumber": 5,
		"ApartmentNumber": 693,
		"Settlement": "Hilversum",
		"District": "Lâm Đồng",
		"Region": "Agder",
		"PostalCode": "53852"
	},
	{
		"Street": "Bagh",
		"BuildingNumber": 132,
		"BuildingLetter": "A",
		"CorpusNumber": 2,
		"ApartmentNumber": 823,
		"Settlement": "Cañas",
		"District": "Aisén",
		"Region": "East Kalimantan",
		"PostalCode": "46747"
	},
	{
		"Street": "Brevik",
		"BuildingNumber": 29,
		"BuildingLetter": "E",
		"CorpusNumber": 18,
		"ApartmentNumber": 522,
		"Settlement": "Cusco",
		"District": "Kirovohrad oblast",
		"Region": "Volyn oblast",
		"PostalCode": "72566"
	},
	{
		"Street": "Rạch Giá",
		"BuildingNumber": 155,
		"BuildingLetter": null,
		"CorpusNumber": 18,
		"ApartmentNumber": 455,
		"Settlement": "De Klinge",
		"District": "Central Region",
		"Region": "Cusco",
		"PostalCode": "54875"
	},
	{
		"Street": "Yurimaguas",
		"BuildingNumber": 173,
		"BuildingLetter": "E",
		"CorpusNumber": 1,
		"ApartmentNumber": 980,
		"Settlement": "Dublin",
		"District": "Languedoc-Roussillon",
		"Region": "Veneto",
		"PostalCode": "93312"
	},
	{
		"Street": "Central Jakarta",
		"BuildingNumber": 208,
		"BuildingLetter": "A",
		"CorpusNumber": 4,
		"ApartmentNumber": 610,
		"Settlement": "Galway",
		"District": "Gyeonggi",
		"Region": "Yukon",
		"PostalCode": "78387"
	},
	{
		"Street": "Appleby",
		"BuildingNumber": 121,
		"BuildingLetter": "B",
		"CorpusNumber": 19,
		"ApartmentNumber": 249,
		"Settlement": "Mitú",
		"District": "Provence-Alpes-Côte d'Azur",
		"Region": "Cusco",
		"PostalCode": "45634"
	},
	{
		"Street": "Guangxi",
		"BuildingNumber": 207,
		"BuildingLetter": "B",
		"CorpusNumber": 10,
		"ApartmentNumber": 19,
		"Settlement": "Chimbote",
		"District": "FATA",
		"Region": "Western Australia",
		"PostalCode": "36455"
	},
	{
		"Street": "Rockford",
		"BuildingNumber": 80,
		"BuildingLetter": "E",
		"CorpusNumber": 8,
		"ApartmentNumber": 433,
		"Settlement": "Burcht",
		"District": "Khyber Pakhtoonkhwa",
		"Region": "Querétaro",
		"PostalCode": "23660"
	},
	{
		"Street": "Bauchi",
		"BuildingNumber": 248,
		"BuildingLetter": "A",
		"CorpusNumber": 1,
		"ApartmentNumber": 204,
		"Settlement": "Jönköping",
		"District": "Brussels Hoofdstedelijk Gewest",
		"Region": "North Jeolla",
		"PostalCode": "38400"
	},
	{
		"Street": "Suruç",
		"BuildingNumber": 73,
		"BuildingLetter": "E",
		"CorpusNumber": 10,
		"ApartmentNumber": 325,
		"Settlement": "Motala",
		"District": "Cherkasy oblast",
		"Region": "North Jeolla",
		"PostalCode": "81879"
	},
	{
		"Street": "Lutsk",
		"BuildingNumber": 195,
		"BuildingLetter": "A",
		"CorpusNumber": 13,
		"ApartmentNumber": 487,
		"Settlement": "Zapopan",
		"District": "Ohio",
		"Region": "Cantabria",
		"PostalCode": "94852"
	},
	{
		"Street": "Heredia",
		"BuildingNumber": 91,
		"BuildingLetter": null,
		"CorpusNumber": 18,
		"ApartmentNumber": 608,
		"Settlement": "Istanbul",
		"District": "Oost-Vlaanderen",
		"Region": "Valparaíso",
		"PostalCode": "03301"
	},
	{
		"Street": "Queenstown",
		"BuildingNumber": 14,
		"BuildingLetter": "B",
		"CorpusNumber": 19,
		"ApartmentNumber": 607,
		"Settlement": "Alajuela",
		"District": "Swiętokrzyskie",
		"Region": "Calabria",
		"PostalCode": "63377"
	},
	{
		"Street": "Belfast",
		"BuildingNumber": 214,
		"BuildingLetter": "A",
		"CorpusNumber": 3,
		"ApartmentNumber": 183,
		"Settlement": "Hohen Neuendorf",
		"District": "Gilgit Baltistan",
		"Region": "Santander",
		"PostalCode": "55384"
	},
	{
		"Street": "Ang Mo Kio",
		"BuildingNumber": 72,
		"BuildingLetter": "E",
		"CorpusNumber": 19,
		"ApartmentNumber": 372,
		"Settlement": "Åkersberga",
		"District": "West Region",
		"Region": "Special Capital Region of Jakarta",
		"PostalCode": "85371"
	},
	{
		"Street": "Villach",
		"BuildingNumber": 71,
		"BuildingLetter": "B",
		"CorpusNumber": 9,
		"ApartmentNumber": 926,
		"Settlement": "Isabela City",
		"District": "Zuid Holland",
		"Region": "Noord Holland",
		"PostalCode": "67056"
	},
	{
		"Street": "Andong",
		"BuildingNumber": 99,
		"BuildingLetter": "A",
		"CorpusNumber": 19,
		"ApartmentNumber": 48,
		"Settlement": "Cork",
		"District": "Magallanes y Antártica Chilena",
		"Region": "East Kalimantan",
		"PostalCode": "61204"
	},
	{
		"Street": "Chuncheon",
		"BuildingNumber": 46,
		"BuildingLetter": null,
		"CorpusNumber": 11,
		"ApartmentNumber": 514,
		"Settlement": "Whyalla",
		"District": "North Island",
		"Region": "Loreto",
		"PostalCode": "78142"
	},
	{
		"Street": "Daman",
		"BuildingNumber": 30,
		"BuildingLetter": "B",
		"CorpusNumber": 16,
		"ApartmentNumber": 852,
		"Settlement": "Nizip",
		"District": "Bali",
		"Region": "Special Region of Yogyakarta",
		"PostalCode": "22371"
	},
	{
		"Street": "Bossut-Gottechain",
		"BuildingNumber": 215,
		"BuildingLetter": "E",
		"CorpusNumber": 4,
		"ApartmentNumber": 757,
		"Settlement": "Adelaide",
		"District": "Lambayeque",
		"Region": "Salzburg",
		"PostalCode": "61334"
	},
	{
		"Street": "Cajamarca",
		"BuildingNumber": 68,
		"BuildingLetter": null,
		"CorpusNumber": 12,
		"ApartmentNumber": 100,
		"Settlement": "Cork",
		"District": "Leinster",
		"Region": "South Island",
		"PostalCode": "65781"
	},
	{
		"Street": "Bogotá",
		"BuildingNumber": 117,
		"BuildingLetter": "A",
		"CorpusNumber": 13,
		"ApartmentNumber": 807,
		"Settlement": "Kech",
		"District": "Ulster",
		"Region": "Oxfordshire",
		"PostalCode": "77326"
	},
	{
		"Street": "West Jakarta",
		"BuildingNumber": 107,
		"BuildingLetter": null,
		"CorpusNumber": 9,
		"ApartmentNumber": 548,
		"Settlement": "Kroonstad",
		"District": "Picardie",
		"Region": "Heredia",
		"PostalCode": "21476"
	},
	{
		"Street": "Hougang",
		"BuildingNumber": 145,
		"BuildingLetter": "E",
		"CorpusNumber": 10,
		"ApartmentNumber": 511,
		"Settlement": "Sens",
		"District": "Xīběi",
		"Region": "Sindh",
		"PostalCode": "23755"
	},
	{
		"Street": "Bislig",
		"BuildingNumber": 147,
		"BuildingLetter": null,
		"CorpusNumber": 19,
		"ApartmentNumber": 217,
		"Settlement": "Bodø",
		"District": "Västra Götalands län",
		"Region": "Agder",
		"PostalCode": "74047"
	},
	{
		"Street": "Heilongjiang",
		"BuildingNumber": 228,
		"BuildingLetter": "B",
		"CorpusNumber": 9,
		"ApartmentNumber": 423,
		"Settlement": "Mykolaiv",
		"District": "Murcia",
		"Region": "East Region",
		"PostalCode": "43833"
	},
	{
		"Street": "Gaziantep",
		"BuildingNumber": 130,
		"BuildingLetter": null,
		"CorpusNumber": 14,
		"ApartmentNumber": 15,
		"Settlement": "Brive-la-Gaillarde",
		"District": "Liguria",
		"Region": "Aisén",
		"PostalCode": "50301"
	},
	{
		"Street": "Ceuta",
		"BuildingNumber": 22,
		"BuildingLetter": "A",
		"CorpusNumber": 3,
		"ApartmentNumber": 9,
		"Settlement": "Gangneung",
		"District": "North Jeolla",
		"Region": "Metropolitana de Santiago",
		"PostalCode": "36752"
	},
	{
		"Street": "Lebowakgomo",
		"BuildingNumber": 244,
		"BuildingLetter": null,
		"CorpusNumber": 2,
		"ApartmentNumber": 430,
		"Settlement": "Guadalupe",
		"District": "Aisén",
		"Region": "Cà Mau",
		"PostalCode": "73564"
	},
	{
		"Street": "Viña del Mar",
		"BuildingNumber": 160,
		"BuildingLetter": "E",
		"CorpusNumber": 14,
		"ApartmentNumber": 668,
		"Settlement": "Spremberg",
		"District": "Nordland",
		"Region": "Opolskie",
		"PostalCode": "27511"
	},
	{
		"Street": "Horten",
		"BuildingNumber": 239,
		"BuildingLetter": "E",
		"CorpusNumber": 14,
		"ApartmentNumber": 388,
		"Settlement": "Vezirköprü",
		"District": "Guanacaste",
		"Region": "North-East Region",
		"PostalCode": "82746"
	},
	{
		"Street": "Tilburg",
		"BuildingNumber": 236,
		"BuildingLetter": null,
		"CorpusNumber": 12,
		"ApartmentNumber": 717,
		"Settlement": "San Cristóbal de la Laguna",
		"District": "Glamorgan",
		"Region": "Balochistan",
		"PostalCode": "28474"
	},
	{
		"Street": "Quimper",
		"BuildingNumber": 199,
		"BuildingLetter": "A",
		"CorpusNumber": 16,
		"ApartmentNumber": 752,
		"Settlement": "Konya",
		"District": "Tennessee",
		"Region": "Sindh",
		"PostalCode": "65541"
	},
	{
		"Street": "Ipís",
		"BuildingNumber": 5,
		"BuildingLetter": "E",
		"CorpusNumber": 7,
		"ApartmentNumber": 866,
		"Settlement": "Sokoto",
		"District": "Piura",
		"Region": "Magallanes y Antártica Chilena",
		"PostalCode": "23844"
	},
	{
		"Street": "Hartford",
		"BuildingNumber": 106,
		"BuildingLetter": "A",
		"CorpusNumber": 6,
		"ApartmentNumber": 308,
		"Settlement": "Puno",
		"District": "Västra Götalands län",
		"Region": "Noord Holland",
		"PostalCode": "41823"
	},
	{
		"Street": "Silvassa",
		"BuildingNumber": 13,
		"BuildingLetter": "A",
		"CorpusNumber": 19,
		"ApartmentNumber": 359,
		"Settlement": "Gdańsk",
		"District": "Campania",
		"Region": "Xīběi",
		"PostalCode": "19592"
	},
	{
		"Street": "Neunkirchen",
		"BuildingNumber": 46,
		"BuildingLetter": "E",
		"CorpusNumber": 7,
		"ApartmentNumber": 96,
		"Settlement": "Hà Nội",
		"District": "KwaZulu-Natal",
		"Region": "Central Region",
		"PostalCode": "24466"
	},
	{
		"Street": "Te Puke",
		"BuildingNumber": 159,
		"BuildingLetter": null,
		"CorpusNumber": 11,
		"ApartmentNumber": 523,
		"Settlement": "Gijón",
		"District": "Santa Catarina",
		"Region": "Balochistan",
		"PostalCode": "27469"
	},
	{
		"Street": "Reyhanlı",
		"BuildingNumber": 78,
		"BuildingLetter": null,
		"CorpusNumber": 14,
		"ApartmentNumber": 215,
		"Settlement": "Talara",
		"District": "Brandenburg",
		"Region": "Nariño",
		"PostalCode": "50848"
	},
	{
		"Street": "Aguacaliente (San Francisco]",
		"BuildingNumber": 135,
		"BuildingLetter": "A",
		"CorpusNumber": 11,
		"ApartmentNumber": 787,
		"Settlement": "Aisén",
		"District": "West Region",
		"Region": "Leningrad Oblast",
		"PostalCode": "27331"
	},
	{
		"Street": "Anamur",
		"BuildingNumber": 225,
		"BuildingLetter": "B",
		"CorpusNumber": 12,
		"ApartmentNumber": 853,
		"Settlement": "Logroño",
		"District": "Ontario",
		"Region": "Podlaskie",
		"PostalCode": "33741"
	},
	{
		"Street": "Saint-Brieuc",
		"BuildingNumber": 244,
		"BuildingLetter": "B",
		"CorpusNumber": 5,
		"ApartmentNumber": 52,
		"Settlement": "Frederikstad",
		"District": "Ceuta",
		"Region": "Punjab",
		"PostalCode": "61862"
	},
	{
		"Street": "Chuncheon",
		"BuildingNumber": 111,
		"BuildingLetter": "E",
		"CorpusNumber": 19,
		"ApartmentNumber": 907,
		"Settlement": "Manukau",
		"District": "Flevoland",
		"Region": "Västra Götalands län",
		"PostalCode": "44296"
	},
	{
		"Street": "Los Mochis",
		"BuildingNumber": 250,
		"BuildingLetter": null,
		"CorpusNumber": 8,
		"ApartmentNumber": 741,
		"Settlement": "Worksop",
		"District": "Aisén",
		"Region": "Murcia",
		"PostalCode": "65433"
	},
	{
		"Street": "Museum",
		"BuildingNumber": 78,
		"BuildingLetter": "E",
		"CorpusNumber": 14,
		"ApartmentNumber": 597,
		"Settlement": "Butuan",
		"District": "łódzkie",
		"Region": "Stockholms län",
		"PostalCode": "47321"
	},
	{
		"Street": "Mackay",
		"BuildingNumber": 194,
		"BuildingLetter": "A",
		"CorpusNumber": 17,
		"ApartmentNumber": 146,
		"Settlement": "Chuncheon",
		"District": "Bremen",
		"Region": "Loreto",
		"PostalCode": "52843"
	},
	{
		"Street": "Sembawang",
		"BuildingNumber": 74,
		"BuildingLetter": "A",
		"CorpusNumber": 7,
		"ApartmentNumber": 137,
		"Settlement": "Samaniego",
		"District": "Toscana",
		"Region": "Abruzzo",
		"PostalCode": "11871"
	},
	{
		"Street": "Bengkulu",
		"BuildingNumber": 170,
		"BuildingLetter": "B",
		"CorpusNumber": 14,
		"ApartmentNumber": 304,
		"Settlement": "Chepén",
		"District": "Munster",
		"Region": "Cartago",
		"PostalCode": "60405"
	},
	{
		"Street": "Sungei Kadut",
		"BuildingNumber": 11,
		"BuildingLetter": "B",
		"CorpusNumber": 12,
		"ApartmentNumber": 596,
		"Settlement": "Lillehammer",
		"District": "Khyber Pakhtoonkhwa",
		"Region": "Himachal Pradesh",
		"PostalCode": "70748"
	},
	{
		"Street": "Wadgassen",
		"BuildingNumber": 108,
		"BuildingLetter": "E",
		"CorpusNumber": 16,
		"ApartmentNumber": 749,
		"Settlement": "Ciudad Valles",
		"District": "Chernihiv oblast",
		"Region": "Vienna",
		"PostalCode": "79566"
	},
	{
		"Street": "Iqaluit",
		"BuildingNumber": 39,
		"BuildingLetter": null,
		"CorpusNumber": 9,
		"ApartmentNumber": 163,
		"Settlement": "Kungälv",
		"District": "Toscana",
		"Region": "Jeju",
		"PostalCode": "61538"
	},
	{
		"Street": "Oamaru",
		"BuildingNumber": 169,
		"BuildingLetter": null,
		"CorpusNumber": 20,
		"ApartmentNumber": 924,
		"Settlement": "Warszawa",
		"District": "Florida",
		"Region": "North Island",
		"PostalCode": "31686"
	},
	{
		"Street": "Tampines",
		"BuildingNumber": 91,
		"BuildingLetter": "A",
		"CorpusNumber": 6,
		"ApartmentNumber": 766,
		"Settlement": "Alajuelita",
		"District": "Western Australia",
		"Region": "Basse-Normandie",
		"PostalCode": "22135"
	},
	{
		"Street": "Béthune",
		"BuildingNumber": 78,
		"BuildingLetter": "A",
		"CorpusNumber": 5,
		"ApartmentNumber": 505,
		"Settlement": "Niort",
		"District": "Kogi",
		"Region": "Kirkcudbrightshire",
		"PostalCode": "03117"
	},
	{
		"Street": "Cork",
		"BuildingNumber": 88,
		"BuildingLetter": null,
		"CorpusNumber": 3,
		"ApartmentNumber": 740,
		"Settlement": "Battagram",
		"District": "Iowa",
		"Region": "Gävleborgs län",
		"PostalCode": "85185"
	},
	{
		"Street": "Olinda",
		"BuildingNumber": 132,
		"BuildingLetter": null,
		"CorpusNumber": 2,
		"ApartmentNumber": 793,
		"Settlement": "Iligan",
		"District": "Sonora",
		"Region": "Ulster",
		"PostalCode": "16824"
	},
	{
		"Street": "Fortaleza",
		"BuildingNumber": 150,
		"BuildingLetter": "E",
		"CorpusNumber": 6,
		"ApartmentNumber": 129,
		"Settlement": "Dublin",
		"District": "East Nusa Tenggara",
		"Region": "Rio Grande do Sul",
		"PostalCode": "44069"
	},
	{
		"Street": "Philadelphia",
		"BuildingNumber": 231,
		"BuildingLetter": "B",
		"CorpusNumber": 11,
		"ApartmentNumber": 583,
		"Settlement": "Minna",
		"District": "Noord Holland",
		"Region": "Bayern",
		"PostalCode": "13095"
	},
	{
		"Street": "Woerden",
		"BuildingNumber": 41,
		"BuildingLetter": "E",
		"CorpusNumber": 12,
		"ApartmentNumber": 76,
		"Settlement": "Murmansk",
		"District": "Maule",
		"Region": "Valle del Cauca",
		"PostalCode": "55871"
	},
	{
		"Street": "Grand-Reng",
		"BuildingNumber": 121,
		"BuildingLetter": null,
		"CorpusNumber": 16,
		"ApartmentNumber": 652,
		"Settlement": "Sicuani",
		"District": "Kujawsko-pomorskie",
		"Region": "Magallanes y Antártica Chilena",
		"PostalCode": "26988"
	},
	{
		"Street": "Zoetermeer",
		"BuildingNumber": 28,
		"BuildingLetter": "E",
		"CorpusNumber": 11,
		"ApartmentNumber": 555,
		"Settlement": "Monte Giberto",
		"District": "Arauca",
		"Region": "Carinthia",
		"PostalCode": "04304"
	},
	{
		"Street": "Poznań",
		"BuildingNumber": 126,
		"BuildingLetter": "B",
		"CorpusNumber": 20,
		"ApartmentNumber": 896,
		"Settlement": "Lampeter",
		"District": "Mersin",
		"Region": "Huádōng",
		"PostalCode": "31814"
	},
	{
		"Street": "Suncheon",
		"BuildingNumber": 195,
		"BuildingLetter": "B",
		"CorpusNumber": 2,
		"ApartmentNumber": 263,
		"Settlement": "Marawi",
		"District": "Piura",
		"Region": "Central Java",
		"PostalCode": "70082"
	},
	{
		"Street": "Bremerhaven",
		"BuildingNumber": 171,
		"BuildingLetter": "A",
		"CorpusNumber": 5,
		"ApartmentNumber": 512,
		"Settlement": "Virginia",
		"District": "Virginia",
		"Region": "Bình Thuận",
		"PostalCode": "58475"
	},
	{
		"Street": "Vigan",
		"BuildingNumber": 191,
		"BuildingLetter": "B",
		"CorpusNumber": 2,
		"ApartmentNumber": 875,
		"Settlement": "Uzhhorod",
		"District": "South Gyeongsang",
		"Region": "Bayern",
		"PostalCode": "88630"
	},
	{
		"Street": "Götzis",
		"BuildingNumber": 96,
		"BuildingLetter": "E",
		"CorpusNumber": 18,
		"ApartmentNumber": 819,
		"Settlement": "Leeuwarden",
		"District": "Punjab",
		"Region": "Free State",
		"PostalCode": "42352"
	},
	{
		"Street": "Vanderhoof",
		"BuildingNumber": 219,
		"BuildingLetter": "E",
		"CorpusNumber": 12,
		"ApartmentNumber": 205,
		"Settlement": "Moe",
		"District": "Cartago",
		"Region": "Kujawsko-pomorskie",
		"PostalCode": "12648"
	},
	{
		"Street": "Puerto Carreño",
		"BuildingNumber": 44,
		"BuildingLetter": "B",
		"CorpusNumber": 18,
		"ApartmentNumber": 456,
		"Settlement": "Cametá",
		"District": "Magallanes y Antártica Chilena",
		"Region": "Noord Brabant",
		"PostalCode": "74347"
	},
	{
		"Street": "Manisa",
		"BuildingNumber": 32,
		"BuildingLetter": "A",
		"CorpusNumber": 5,
		"ApartmentNumber": 398,
		"Settlement": "Dieppe",
		"District": "Caquetá",
		"Region": "Bayern",
		"PostalCode": "82332"
	},
	{
		"Street": "Gijón",
		"BuildingNumber": 115,
		"BuildingLetter": "B",
		"CorpusNumber": 2,
		"ApartmentNumber": 952,
		"Settlement": "Dublin",
		"District": "Luhansk oblast",
		"Region": "Calabarzon",
		"PostalCode": "24115"
	},
	{
		"Street": "Baunatal",
		"BuildingNumber": 214,
		"BuildingLetter": "B",
		"CorpusNumber": 6,
		"ApartmentNumber": 887,
		"Settlement": "Graaff-Reinet",
		"District": "Bursa",
		"Region": "Donetsk oblast",
		"PostalCode": "62155"
	},
	{
		"Street": "Vallenar",
		"BuildingNumber": 150,
		"BuildingLetter": "B",
		"CorpusNumber": 3,
		"ApartmentNumber": 446,
		"Settlement": "Dublin",
		"District": "Sachsen-Anhalt",
		"Region": "La Guajira",
		"PostalCode": "55553"
	},
	{
		"Street": "Cauayan",
		"BuildingNumber": 87,
		"BuildingLetter": "B",
		"CorpusNumber": 10,
		"ApartmentNumber": 648,
		"Settlement": "Frederikstad",
		"District": "Caraga",
		"Region": "Leinster",
		"PostalCode": "13507"
	},
	{
		"Street": "Ribeirão Preto",
		"BuildingNumber": 50,
		"BuildingLetter": "E",
		"CorpusNumber": 9,
		"ApartmentNumber": 241,
		"Settlement": "Sierra Gorda",
		"District": "Lai Châu",
		"Region": "Munster",
		"PostalCode": "62021"
	},
	{
		"Street": "Puntarenas",
		"BuildingNumber": 2,
		"BuildingLetter": "A",
		"CorpusNumber": 17,
		"ApartmentNumber": 941,
		"Settlement": "Chungju",
		"District": "North Jeolla",
		"Region": "Vestland",
		"PostalCode": "47738"
	},
	{
		"Street": "Alençon",
		"BuildingNumber": 149,
		"BuildingLetter": "B",
		"CorpusNumber": 7,
		"ApartmentNumber": 455,
		"Settlement": "Aizwal",
		"District": "West-Vlaanderen",
		"Region": "Smolensk Oblast",
		"PostalCode": "72376"
	},
	{
		"Street": "Sengkang",
		"BuildingNumber": 193,
		"BuildingLetter": "B",
		"CorpusNumber": 14,
		"ApartmentNumber": 135,
		"Settlement": "Santa Rita",
		"District": "Gia Lai",
		"Region": "Cao Bằng",
		"PostalCode": "45710"
	},
	{
		"Street": "Lagos",
		"BuildingNumber": 153,
		"BuildingLetter": "A",
		"CorpusNumber": 13,
		"ApartmentNumber": 385,
		"Settlement": "Gimcheon",
		"District": "Huáběi",
		"Region": "North Jeolla",
		"PostalCode": "39061"
	},
	{
		"Street": "Hà Giang",
		"BuildingNumber": 54,
		"BuildingLetter": "B",
		"CorpusNumber": 19,
		"ApartmentNumber": 327,
		"Settlement": "Girardot",
		"District": "Xīběi",
		"Region": "Ninh Bình",
		"PostalCode": "15753"
	},
	{
		"Street": "San Pablo",
		"BuildingNumber": 225,
		"BuildingLetter": "E",
		"CorpusNumber": 16,
		"ApartmentNumber": 474,
		"Settlement": "Allein",
		"District": "Nunavut",
		"Region": "South Island",
		"PostalCode": "03488"
	},
	{
		"Street": "Woodlands",
		"BuildingNumber": 12,
		"BuildingLetter": "B",
		"CorpusNumber": 17,
		"ApartmentNumber": 631,
		"Settlement": "Namsos",
		"District": "Huáběi",
		"Region": "Heredia",
		"PostalCode": "22084"
	},
	{
		"Street": "Leoben",
		"BuildingNumber": 40,
		"BuildingLetter": null,
		"CorpusNumber": 19,
		"ApartmentNumber": 805,
		"Settlement": "Forchtenstein",
		"District": "Heredia",
		"Region": "Hà Nam",
		"PostalCode": "01858"
	},
	{
		"Street": "Hebei",
		"BuildingNumber": 54,
		"BuildingLetter": null,
		"CorpusNumber": 19,
		"ApartmentNumber": 111,
		"Settlement": "Fiumara",
		"District": "Burgenland",
		"Region": "La Rioja",
		"PostalCode": "23323"
	},
	{
		"Street": "Antofagasta",
		"BuildingNumber": 196,
		"BuildingLetter": "E",
		"CorpusNumber": 16,
		"ApartmentNumber": 712,
		"Settlement": "Guizhou",
		"District": "Karnataka",
		"Region": "Cherkasy oblast",
		"PostalCode": "96745"
	},
	{
		"Street": "Mérida",
		"BuildingNumber": 65,
		"BuildingLetter": "B",
		"CorpusNumber": 3,
		"ApartmentNumber": 623,
		"Settlement": "Ladysmith",
		"District": "North Island",
		"Region": "Luxemburg",
		"PostalCode": "88770"
	},
	{
		"Street": "Balclutha",
		"BuildingNumber": 199,
		"BuildingLetter": null,
		"CorpusNumber": 5,
		"ApartmentNumber": 592,
		"Settlement": "Wanaka",
		"District": "Konya",
		"Region": "Picardie",
		"PostalCode": "73276"
	},
	{
		"Street": "Hartford",
		"BuildingNumber": 240,
		"BuildingLetter": null,
		"CorpusNumber": 19,
		"ApartmentNumber": 662,
		"Settlement": "Curitiba",
		"District": "Östergötlands län",
		"Region": "Maranhão",
		"PostalCode": "58464"
	},
	{
		"Street": "Częstochowa",
		"BuildingNumber": 250,
		"BuildingLetter": "B",
		"CorpusNumber": 8,
		"ApartmentNumber": 851,
		"Settlement": "Kimberley",
		"District": "Cagayan Valley",
		"Region": "Ulster",
		"PostalCode": "14623"
	},
	{
		"Street": "Dera Bugti",
		"BuildingNumber": 220,
		"BuildingLetter": "E",
		"CorpusNumber": 1,
		"ApartmentNumber": 448,
		"Settlement": "Heilongjiang",
		"District": "Västra Götalands län",
		"Region": "North Island",
		"PostalCode": "37258"
	},
	{
		"Street": "Dubbo",
		"BuildingNumber": 103,
		"BuildingLetter": "A",
		"CorpusNumber": 3,
		"ApartmentNumber": 795,
		"Settlement": "Palu",
		"District": "British Columbia",
		"Region": "Emilia-Romagna",
		"PostalCode": "49232"
	},
	{
		"Street": "Wilhelmshaven",
		"BuildingNumber": 153,
		"BuildingLetter": "B",
		"CorpusNumber": 5,
		"ApartmentNumber": 985,
		"Settlement": "Huancayo",
		"District": "Murcia",
		"Region": "Central Region",
		"PostalCode": "50551"
	},
	{
		"Street": "Tehuacán",
		"BuildingNumber": 227,
		"BuildingLetter": "A",
		"CorpusNumber": 17,
		"ApartmentNumber": 25,
		"Settlement": "Cork",
		"District": "Casanare",
		"Region": "Uttarakhand",
		"PostalCode": "56737"
	},
	{
		"Street": "Assen",
		"BuildingNumber": 10,
		"BuildingLetter": "B",
		"CorpusNumber": 15,
		"ApartmentNumber": 56,
		"Settlement": "Hallein",
		"District": "Styria",
		"Region": "Pará",
		"PostalCode": "78221"
	},
	{
		"Street": "Talara",
		"BuildingNumber": 22,
		"BuildingLetter": null,
		"CorpusNumber": 9,
		"ApartmentNumber": 978,
		"Settlement": "Puno",
		"District": "Piura",
		"Region": "Gyeonggi",
		"PostalCode": "02661"
	},
	{
		"Street": "Banjarbaru",
		"BuildingNumber": 201,
		"BuildingLetter": null,
		"CorpusNumber": 18,
		"ApartmentNumber": 803,
		"Settlement": "Lauro de Freitas",
		"District": "Antwerpen",
		"Region": "Junín",
		"PostalCode": "13642"
	},
	{
		"Street": "Serangoon",
		"BuildingNumber": 45,
		"BuildingLetter": null,
		"CorpusNumber": 8,
		"ApartmentNumber": 556,
		"Settlement": "Lidköping",
		"District": "Ilocos Region",
		"Region": "North Island",
		"PostalCode": "37422"
	}
]